X,Y,Name,description,altitudeMode,X_ADDR,ADDRESSPOSTALCODE,ADDRESSTYPE,DESCRIPTION2,HYPERLINK,ADDRESSBUILDINGNAME,FMEL_UPD_D,ADDRESSFLOORNUMBER,ADDRESSSTREETNAME,LANDYADDRESSPOINT,INC_CRC,SHAPE,Y_ADDR,NAME2,ADDRESSUNITNUMBER,LANDXADDRESSPOINT,Field_1,ADDRESSBLOCKHOUSENUMBER,PHOTOURL,Type
103.852244,1.283562976,The (Alkaff) Arcade,The Arcade or the Alkaff Arcade was built in 1909 by the Alkaff family.,clampToGround,30106.24,,,,"<a target=""_blank"" href=""http://infopedia.nl.sg/articles/SIP_1067_2006-06-15.html"">http://infopedia.nl.sg/articles/SIP_1067_2006-06-15.html</a>",,4/17/2013 12:25:55 PM,,,29555.4,1C812C9CD6D32955,Point,29555.4,,,30106.24,The (Alkaff) Arcade,,,historic building
103.851871,1.293722975,Stamford Road,Part of this road stretch was once called Hospital Street because a convict hospital and lunatic asylum was situated here.,clampToGround,30064.7199,,,,"<a target=""_blank"" href=""http://infopedia.nl.sg/articles/SIP_865_2005-01-24.html"">http://infopedia.nl.sg/articles/SIP_865_2005-01-24.html</a>",,4/17/2013 12:25:55 PM,,,30678.84,A169ABA8E89880F9,Point,30678.8399,,,30064.72,Stamford Road,,,historic building
103.853721,1.304415989,Abdul Gafoor Mosque,Abdul Gaffoor Mosque is located at 41 Dunlop Street in the Little India conservation district.,clampToGround,30270.5999,,,,"<a target=""_blank"" href=""http://infopedia.nl.sg/articles/SIP_292_2004-12-23.html"">http://infopedia.nl.sg/articles/SIP_292_2004-12-23.html</a>",,4/17/2013 12:25:55 PM,,,31861.22,E576E3B1CCA6F884,Point,31861.22,,,30270.6,Abdul Gafoor Mosque,,,mosque
103.8148739,1.478211988,Strait of Johore,"In 1775, Selat Tebrau is mentioned in A. de Mannevillette's 'Neptune Oriental' Map 49.",clampToGround,25947.4299,,,,"<a target=""_blank"" href=""http://infopedia.nl.sg/articles/SIP_787_2005-01-24.html"">http://infopedia.nl.sg/articles/SIP_787_2005-01-24.html</a>",,4/17/2013 12:25:55 PM,,,51078.7,07F4B2C519E93FF7,Point,51078.6999,,,25947.43,Strait of Johore,,,bridge
103.859071,1.302178993,Sultan's Mosque,"The Sultan Mosque is located at 3 Muscat Street, where it is the focal point of the historic Kampong Glam area.",clampToGround,30866.0099,,,,"<a target=""_blank"" href=""http://infopedia.nl.sg/articles/SIP_753_2005-01-03.html"">http://infopedia.nl.sg/articles/SIP_753_2005-01-03.html</a>",,4/17/2013 12:25:55 PM,,,31613.87,2B0538AE12C4A871,Point,31613.8699,,,30866.01,Sultan's Mosque,,,mosque
103.8515579,1.282069784,Asia Insurance Building,"Asia Insurance Building, also known as the A. I. Building, is located at 2 Finlayson Green. It was opened on 10 December 1955 with 18 floors at a height of  87 m.",clampToGround,30029.8899,,,,"<a target=""_blank"" href=""http://infopedia.nl.sg/articles/SIP_592_2005-01-17.html"">http://infopedia.nl.sg/articles/SIP_592_2005-01-17.html</a>",,4/17/2013 3:53:48 PM,,,29390.29,5A6E3F4DA279A799,Point,29390.2899,,,30029.89,Asia Insurance Building,,,building
103.8664539,1.364303948,Chomp-Chomp Hawkers,"In the 1960s, the stalls at Chomp Chomp were originally located at where bus-stop and carpark now stands, opposite the present hawker centre.",clampToGround,31687.57,,,,"<a target=""_blank"" href=""http://infopedia.nl.sg/articles/SIP_873_2004-12-17.html"">http://infopedia.nl.sg/articles/SIP_873_2004-12-17.html</a>",,4/17/2013 12:25:55 PM,,,38483.34,A51DF3F113FDBE86,Point,38483.3399,,,31687.57,Chomp-Chomp Hawkers,,,food
103.8500659,1.285145992,Chulia Street,"It used to be called Kling Street, which was regarded as derogatory leading to the street being renamed Chulia Street, after the Chulias who migrated to Singapore from Southern India.Â¿",clampToGround,29863.8399,,,,"<a target=""_blank"" href=""http://infopedia.nl.sg/articles/SIP_222_2005-01-18.html"">http://infopedia.nl.sg/articles/SIP_222_2005-01-18.html</a>",,4/17/2013 12:25:55 PM,,,29730.44,8EAAE463B9C0AAD3,Point,29730.4399,,,29863.84,Chulia Street,,,shopping
103.853074,1.286146921,Fullerton Hotel,"The Fullerton Hotel, situated at Fullerton Square, was originally a public institution known as the Fullerton Building.",clampToGround,30198.61,,,,"<a target=""_blank"" href=""http://infopedia.nl.sg/articles/SIP_527_2004-12-13.html"">http://infopedia.nl.sg/articles/SIP_527_2004-12-13.html</a>",,4/17/2013 12:25:55 PM,,,29841.12,5C4FC7206A73B61C,Point,29841.1199,,,30198.61,Fullerton Hotel,,,hotel
103.8967449,1.31681193,Geylang Serai,Geylang Serai is one of the oldest Malay Settlements in Singapore.,clampToGround,35058.74,,,,"<a target=""_blank"" href=""http://infopedia.nl.sg/articles/SIP_747_2004-12-09.html"">http://infopedia.nl.sg/articles/SIP_747_2004-12-09.html</a>",,4/17/2013 12:25:55 PM,,,33231.98,DC811FC409769585,Point,33231.98,,,35058.74,Geylang Serai,,,food
103.8388229,1.317570955,Gilstead Road,"Gilstead Road, which connects Dunearn Road and Buckley Road, is lined with old residential units, some dating back to the 1920s.",clampToGround,28612.58,,,,"<a target=""_blank"" href=""http://infopedia.nl.sg/articles/SIP_711_2005-01-25.html"">http://infopedia.nl.sg/articles/SIP_711_2005-01-25.html</a>",,4/17/2013 12:25:55 PM,,,33315.82,94C13312AC0EE3E3,Point,33315.82,,,28612.58,Gilstead Road,,,district
103.8442189,1.277063985,Tras Street,Tras Street runs between Enggor Street and Cook Street.,clampToGround,29213.12,,,,"<a target=""_blank"" href=""http://infopedia.nl.sg/articles/SIP_308_2004-12-16.html"">http://infopedia.nl.sg/articles/SIP_308_2004-12-16.html</a>",,4/17/2013 12:25:55 PM,,,28836.77,5D6F91B30222D270,Point,28836.7699,,,29213.12,Tras Street,,,shopping
103.987729,1.389335973,Changi,Changi is an estate that is located at the easternmost end of Singapore.,clampToGround,45183.8899,,,,"<a target=""_blank"" href=""http://infopedia.nl.sg/articles/SIP_245_2004-12-15.html"">http://infopedia.nl.sg/articles/SIP_245_2004-12-15.html</a>",,4/17/2013 12:25:55 PM,,,41251.79,FA4E5AF33CEA00C7,Point,41251.7899,,,45183.89,Changi,,,district
103.973254,1.36228598,Changi Murals Chapel,"Changi Murals Chapel, otherwise known as St Luke's Chapel, was a source of comfort and focal point of social activities for Allied prisoners-of-war in Changi during the Second World War.",clampToGround,43573.1799,,,,"<a target=""_blank"" href=""http://infopedia.nl.sg/articles/SIP_918_2004-12-15.html"">http://infopedia.nl.sg/articles/SIP_918_2004-12-15.html</a>",,4/17/2013 12:25:55 PM,,,38260.63,EC3136E816BCA438,Point,38260.63,,,43573.18,Changi Murals Chapel,,,museum
104.0151579,1.316803989,First US aircraft carrier at Changi Naval Base,"The first US aircraft carrier to visit Singapore's newest naval base, was the American vessel USS Kitty Hawk",clampToGround,48236.99,,,,"<a target=""_blank"" href=""http://infopedia.nl.sg/articles/SIP_522_2004-12-29.html"">http://infopedia.nl.sg/articles/SIP_522_2004-12-29.html</a>",,4/17/2013 12:25:55 PM,,,33231.75,4BA7C4F3A6655F15,Point,33231.75,,,48236.99,First US aircraft carrier at Changi Naval Base,,,naval base
103.893962,1.372347996,Cheng San Public Library,"Cheng San Public Library is located at 90 Hougang Ave 10, #03-11, NTUC Hougang Mall, Singapore 538766.",clampToGround,34748.87,,,,"<a target=""_blank"" href=""http://infopedia.nl.sg/articles/SIP_252_2005-01-24.html"">http://infopedia.nl.sg/articles/SIP_252_2005-01-24.html</a>",,4/17/2013 12:25:55 PM,,,39372.87,C300FCEAD6EADF82,Point,39372.8699,,,34748.87,Cheng San Public Library,,,library
103.84268,1.297323935,Chesed El Synagogue,"Chesed-El Synagogue, located at Oxley Rise, is one of the two synagogues that are currently in use in Singapore.",clampToGround,29041.8399,,,,"<a target=""_blank"" href=""http://infopedia.nl.sg/articles/SIP_841_2004-12-17.html"">http://infopedia.nl.sg/articles/SIP_841_2004-12-17.html</a>",,4/17/2013 12:25:55 PM,,,31077.01,D7ABFB3B84E5A294,Point,31077.0099,,,29041.84,Chesed El Synagogue,,,synagogue
103.8485459,1.296611991,The Singapore Library (1844-1874),The Singapore Library grew out of the Singapore Institution Library and was established on 22 January 1845 as a library for the residents of Singapore.,clampToGround,29694.6699,,,,"<a target=""_blank"" href=""http://infopedia.nl.sg/articles/SIP_653_2005-02-03.html"">http://infopedia.nl.sg/articles/SIP_653_2005-02-03.html</a>",,4/17/2013 12:25:55 PM,,,30998.29,3F6312DACD971342,Point,30998.2899,,,29694.67,The Singapore Library (1844-1874),,,library
103.7867839,1.435041972,Woodlands Regional Library,The Woodlands Regional Library (WRL) was officially opened on 28 April 2001.,clampToGround,22821.4,,,,"<a target=""_blank"" href=""http://infopedia.nl.sg/articles/SIP_674_2005-01-24.html"">http://infopedia.nl.sg/articles/SIP_674_2005-01-24.html</a>",,4/17/2013 12:25:55 PM,,,46305.22,D62B53062D19D19C,Point,46305.22,,,22821.4,Woodlands Regional Library,,,library
103.8151313,1.30478978,St. George's Church,"St George's Church is an Anglican church located at Minden Road, off Holland Road, on the grounds of what were once the Tanglin Barracks.",clampToGround,25975.9199,,,,"<a target=""_blank"" href=""http://infopedia.nl.sg/articles/SIP_754_2004-12-23.html"">http://infopedia.nl.sg/articles/SIP_754_2004-12-23.html</a>",,4/17/2013 12:25:55 PM,,,31902.55,DA149FF012AB11D7,Point,31902.55,,,25975.92,St. George's Church,,,church
103.8447722,1.28377844,Mosque Street,"Mosque Street, a one-way street in Chinatown, connects New Bridge Road to South Bridge Road.",clampToGround,29274.69,,,,"<a target=""_blank"" href=""http://infopedia.nl.sg/articles/SIP_304_2005-01-11.html"">http://infopedia.nl.sg/articles/SIP_304_2005-01-11.html</a>",,4/17/2013 3:53:48 PM,,,29579.22,66DA5055BCDF94E6,Point,29579.22,,,29274.69,Mosque Street,,,mosque
103.8244215,1.336462398,Bukit Brown Muncipal Cemetery,"The Bukit Brown Municipal Cemetery, located between Lornie Road and Mount Pleasant Road, was officially opened on 1 January 1922.",clampToGround,27009.8499,,,,"<a target=""_blank"" href=""http://infopedia.nl.sg/articles/SIP_1358_2009-07-13.html"">http://infopedia.nl.sg/articles/SIP_1358_2009-07-13.html</a>",,4/17/2013 3:53:48 PM,,,35404.74,8C2EBC37CB9ACC45,Point,35404.74,,,27009.85,Bukit Brown Muncipal Cemetery,,,cemetery
103.8485715,1.282152824,Cross Street,Cross Street is a one-way street beginning from Raffles Quay.,clampToGround,29697.5199,,,,"<a target=""_blank"" href=""http://infopedia.nl.sg/articles/SIP_346_2005-01-26.html"">http://infopedia.nl.sg/articles/SIP_346_2005-01-26.html</a>",,4/17/2013 3:53:48 PM,,,29399.47,55F452A08EFEA9DF,Point,29399.47,,,29697.52,Cross Street,,,shopping
103.8526402,1.285554113,Fullerton Square,Fort Fullerton used to stand on the site which is today known as Fullerton Square.,clampToGround,30150.33,,,,"<a target=""_blank"" href=""http://infopedia.nl.sg/articles/SIP_180_2005-01-25.html"">http://infopedia.nl.sg/articles/SIP_180_2005-01-25.html</a>",,4/17/2013 3:53:48 PM,,,29775.57,3CBD44EEA0461AB9,Point,29775.57,,,30150.33,Fullerton Square,,,shopping
103.8262534,1.299236313,Grange Road,begins at the junction of Cairnhill Road and Orchard Road and ends at the junction of Napier Road and Tanglin Road.,clampToGround,27213.71,,,,"<a target=""_blank"" href=""http://infopedia.nl.sg/articles/SIP_315_2005-01-26.html"">http://infopedia.nl.sg/articles/SIP_315_2005-01-26.html</a>",,4/17/2013 3:53:48 PM,,,31288.47,C6636F6B8666A0F2,Point,31288.47,,,27213.71,Grange Road,,,district
103.8485327,1.283588956,Pekin Street,"Pekin Street, in Chinatown, connects China Street and Telok Ayer Street.",clampToGround,29693.21,,,,"<a target=""_blank"" href=""http://infopedia.nl.sg/articles/SIP_326_2004-12-15.html"">http://infopedia.nl.sg/articles/SIP_326_2004-12-15.html</a>",,4/17/2013 3:53:48 PM,,,29558.27,91C670EC78592400,Point,29558.2699,,,29693.21,Pekin Street,,,shopping
103.8390728,1.281441128,Outram Road,"Outram Road, part of the Outram Estate, begins at two places, one at the junction of Kim Seng Road and Havelock Road and the other at the junction of Havelock Road and Saiboo Street.",clampToGround,28640.4,,,,"<a target=""_blank"" href=""http://infopedia.nl.sg/articles/SIP_290_2005-01-26.html"">http://infopedia.nl.sg/articles/SIP_290_2005-01-26.html</a>",,4/17/2013 3:53:48 PM,,,29320.77,11824BF267AF11E0,Point,29320.7699,,,28640.4,Outram Road,,,district
103.8461661,1.274458682,Parsi Road,"Parsis, a small community of merchants following the religion Zoroastrianism, arrived in Singapore in a sizeable number in 1829.",clampToGround,29429.83,,,,"<a target=""_blank"" href=""http://infopedia.nl.sg/articles/SIP_281_2005-01-26.html"">http://infopedia.nl.sg/articles/SIP_281_2005-01-26.html</a>",,4/17/2013 3:53:48 PM,,,28548.69,95483DC438C5DC6A,Point,28548.6899,,,29429.83,Parsi Road,,,district
103.8443167,1.272755681,Keppel Road,"Keppel Road, street, major road thoroughfare in the Tanjong Pagar sub-zone of the Bukit Merah area.",clampToGround,29224.0099,,,,"<a target=""_blank"" href=""http://infopedia.nl.sg/articles/SIP_879_2005-01-27.html"">http://infopedia.nl.sg/articles/SIP_879_2005-01-27.html</a>",,4/17/2013 3:53:48 PM,,,28360.38,3F7F61B387EAA0F0,Point,28360.38,,,29224.01,Keppel Road,,,district
103.8497367,1.284547485,Philip Street,"Philip Street, a short one-way street in Chinatown, connects Chulia Street to Church Street.",clampToGround,29827.2,,,,"<a target=""_blank"" href=""http://infopedia.nl.sg/articles/SIP_355_2004-12-16.html"">http://infopedia.nl.sg/articles/SIP_355_2004-12-16.html</a>",,4/17/2013 3:53:48 PM,,,29664.26,70B703B5A52F3B3B,Point,29664.2599,,,29827.2,Philip Street,,,shopping
103.837371,1.28262594,Pearl's Hill Prison,"The New Civil Jail, as it was generally called, and probably Singapore's oldest proper detention centre at the foot of Pearl's Hill, was built with the help of convict labour.",clampToGround,28451,,,,"<a target=""_blank"" href=""http://infopedia.nl.sg/articles/SIP_129_2005-01-25.html"">http://infopedia.nl.sg/articles/SIP_129_2005-01-25.html</a>",,4/17/2013 12:25:55 PM,,,29451.78,0F2E4590973F1582,Point,29451.7799,,,28451,Pearl's Hill Prison,,,prison
103.8521478,1.282457752,Collyer Quay,"Collyer Quay, street and seawall, is located in Singapore's Downtown Core in the Central Area.",clampToGround,30095.54,,,,"<a target=""_blank"" href=""http://infopedia.nl.sg/articles/SIP_218_2005-01-19.html"">http://infopedia.nl.sg/articles/SIP_218_2005-01-19.html</a>",,4/17/2013 3:53:48 PM,,,29433.19,2B323F576B6F81D3,Point,29433.1899,,,30095.54,Collyer Quay,,,district
103.839215,1.283207986,Pearl's Hill Prison Foundation Stone,"On Saturday morning, 6 February 1847, the foundation stone was laid by Captain Charles Edward Faber, in the presence of Governor Colonel William J. Butterworth C.B.",clampToGround,28656.2199,,,,"<a target=""_blank"" href=""http://infopedia.nl.sg/articles/SIP_494_2005-01-19.html"">http://infopedia.nl.sg/articles/SIP_494_2005-01-19.html</a>",,4/17/2013 12:25:55 PM,,,29516.14,2482AFD0477A4A70,Point,29516.14,,,28656.22,Pearl's Hill Prison Foundation Stone,,,prison
104.4058239,1.330270864,Pedra Branca,"Many shipping vessels have run aground in the rock-reef waters around Pedra Branca, since the earliest reported accidents of Portuguese mariners in the early 1500s.",clampToGround,91715.0099,,,,"<a target=""_blank"" href=""http://infopedia.nl.sg/articles/SIP_722_2005-01-20.html"">http://infopedia.nl.sg/articles/SIP_722_2005-01-20.html</a>",,4/17/2013 12:25:55 PM,,,34727.5,B3936514A9DB2068,Point,34727.5,,,91715.01,Pedra Branca,,,island
103.839382,1.301308938,Peranakan Place,"At the turn of the 20th century, Emerald Hill Road became a fashionable abode for the Peranakans who have settled here for more than 50 years.",clampToGround,28674.7999,,,,"<a target=""_blank"" href=""http://infopedia.nl.sg/articles/SIP_720_2005-01-25.html"">http://infopedia.nl.sg/articles/SIP_720_2005-01-25.html</a>",,4/17/2013 12:25:55 PM,,,31517.65,D2C43D72BC204088,Point,31517.65,,,28674.8,Peranakan Place,,,shopping
103.846846,1.31042997,Kandang Kerbau Women's and Children's Hospital,"Kandang Kerbau Women's and Children's Hospital (KKH), was established in 1924.",clampToGround,29505.4699,,,,"<a target=""_blank"" href=""http://infopedia.nl.sg/articles/SIP_680__2008-11-03.html"">http://infopedia.nl.sg/articles/SIP_680__2008-11-03.html</a>",,4/17/2013 12:25:55 PM,,,32526.21,56659D0C6C9AAF61,Point,32526.21,,,29505.47,Kandang Kerbau Women's and Children's Hospital,,,hospital
103.842129,1.296036936,Killiney House (Belle Vue),"A country house built in 1842, Killiney House atop Oxley Hill belonged to pioneer planter Thomas Oxley.",clampToGround,28980.5199,,,,"<a target=""_blank"" href=""http://infopedia.nl.sg/articles/SIP_1129_2006-04-05.html"">http://infopedia.nl.sg/articles/SIP_1129_2006-04-05.html</a>",,4/17/2013 12:25:55 PM,,,30934.7,6F284DA2ED148078,Point,30934.6999,,,28980.52,Killiney House (Belle Vue),,,historic building
103.843858,1.280976993,Spring Street,"Spring Street, a short one-way road, connects the junction of South Bridge Road and Neil Road to Banda Street.",clampToGround,29172.95,,,,"<a target=""_blank"" href=""http://infopedia.nl.sg/articles/SIP_300_2005-01-11.html"">http://infopedia.nl.sg/articles/SIP_300_2005-01-11.html</a>",,4/17/2013 12:25:55 PM,,,29269.45,24A1113FE718872B,Point,29269.4499,,,29172.95,Spring Street,,,shopping
103.8478223,1.28144444,Nagore Durgha Shrine,"Nagore Durgha Shrine is located at 140 Telok Ayer Street, in the historic Chinatown area.",clampToGround,29614.15,,,,"<a target=""_blank"" href=""http://infopedia.nl.sg/articles/SIP_536_2004-12-27.html"">http://infopedia.nl.sg/articles/SIP_536_2004-12-27.html</a>",,4/22/2013 3:41:48 PM,,,29321.14,D7CAC5FF827C4531,Point,29321.14,,,29614.15,Nagore Durgha Shrine,,,shrine
103.8351159,1.310410924,Scotts Road,"William G. Scott (b. 3 May, 1786 - d. 18 December, 1861, Singapore) was a first cousin of the famous novelist Sir Walter Scott, and Harbour Master Attendant and Post Master of Singapore in 1836.",clampToGround,28200.03,,,,"<a target=""_blank"" href=""http://infopedia.nl.sg/articles/SIP_739_2005-01-26.html"">http://infopedia.nl.sg/articles/SIP_739_2005-01-26.html</a>",,4/17/2013 12:25:55 PM,,,32524.1,231E78DF8EF001F7,Point,32524.0999,,,28200.03,Scotts Road,,,district
103.885841,1.317408975,Geylang East Public Library,"Geylang East Public Library, was the seventh branch library built by National Library Board.",clampToGround,33845.23,,,,"<a target=""_blank"" href=""http://infopedia.nl.sg/articles/SIP_701_2005-01-24.html"">http://infopedia.nl.sg/articles/SIP_701_2005-01-24.html</a>",,4/17/2013 12:25:55 PM,,,33297.97,DA6225811F3CA130,Point,33297.97,,,33845.23,Geylang East Public Library,,,library
103.9047494,1.306056202,Hock Ann Coffeeshop,"Hock Ann Coffeeshop, a.k.a, Hock Ann Eating House, is located at 125-127 East Coast Road.",clampToGround,35949.5899,,,,"<a target=""_blank"" href=""http://infopedia.nl.sg/articles/SIP_609_2005-01-04.html"">http://infopedia.nl.sg/articles/SIP_609_2005-01-04.html</a>",,4/17/2013 12:25:55 PM,,,32042.69,57436875EEED7A91,Point,32042.6899,,,35949.59,Hock Ann Coffeeshop,,,food
104.4056402,1.312138582,Horsburgh Lighthouse Memorial Tablet,"Horsburgh Lighthouse Memorial Tablet, in Horsburgh Lighthouse on Pedra Branca island.",clampToGround,91695.0199,,,,"<a target=""_blank"" href=""http://infopedia.nl.sg/articles/SIP_937_2005-01-19.html"">http://infopedia.nl.sg/articles/SIP_937_2005-01-19.html</a>",,4/17/2013 12:25:55 PM,,,32722.42,8AF5B08746B59498,Point,32722.4199,,,91695.02,Horsburgh Lighthouse Memorial Tablet,,,historic landmark
103.929612,1.366831924,Tampines,"Originally, referring to a single kampong located at the 7th mile of Upper Serangoon Road.",clampToGround,38716.3099,,,,"<a target=""_blank"" href=""http://infopedia.nl.sg/articles/SIP_812_2004-12-30.html"">http://infopedia.nl.sg/articles/SIP_812_2004-12-30.html</a>",,4/17/2013 12:25:55 PM,,,38763.06,F1E94109E8D8820A,Point,38763.06,,,38716.31,Tampines,,,district
103.9057269,1.325542956,Jalan Eunos,Jalan Eunos marks the eastern boundary of the Geylang area located in the Central Region.,clampToGround,36058.32,,,,"<a target=""_blank"" href=""http://infopedia.nl.sg/articles/SIP_738_2005-01-24.html"">http://infopedia.nl.sg/articles/SIP_738_2005-01-24.html</a>",,4/17/2013 12:25:55 PM,,,34197.44,F5ADD6BC46474A41,Point,34197.4399,,,36058.32,Jalan Eunos,,,district
103.802424,1.402141937,Seletar Reservoir,"Seletar Reservoir, managed by the Public Utilities Board, is located within Singapore's Central Water Catchment area, bound by Mandai Road and Seletar Expressway.",clampToGround,24561.8499,,,,"<a target=""_blank"" href=""http://infopedia.nl.sg/articles/SIP_562_2005-01-19.html"">http://infopedia.nl.sg/articles/SIP_562_2005-01-19.html</a>",,4/17/2013 12:25:55 PM,,,42667.27,D85594002520E27C,Point,42667.2699,,,24561.85,Seletar Reservoir,,,reservoir
103.8524659,1.287064946,Dalhousie Pier,"Dalhousie Pier, jetty-pier, was located in the Central Region.",clampToGround,30130.94,,,,"<a target=""_blank"" href=""http://infopedia.nl.sg/articles/SIP_36_2005-01-22.html"">http://infopedia.nl.sg/articles/SIP_36_2005-01-22.html</a>",,4/17/2013 12:25:55 PM,,,29942.63,563F78C5229FE338,Point,29942.63,,,30130.94,Dalhousie Pier,,,pier
103.9647335,1.330271231,Library Supply Centre,The Library Supply Centre houses the Library Support Services (LSS) Division of the National Library Board.,clampToGround,42625.1399,,,,"<a target=""_blank"" href=""http://infopedia.nl.sg/articles/SIP_265_2005-01-19.html"">http://infopedia.nl.sg/articles/SIP_265_2005-01-19.html</a>",,4/17/2013 12:25:55 PM,,,34720.54,2FDBFA79BA0CA3D2,Point,34720.5399,,,42625.14,Library Supply Centre,,,library
103.8556658,1.289509599,Library@Esplanade,"Library@Esplanade, officially opened on 12 September 2002, is Singapore's first performing arts library.",clampToGround,30487.051,,,,"<a target=""_blank"" href=""http://infopedia.nl.sg/articles/SIP_670_2005-01-24.html"">http://infopedia.nl.sg/articles/SIP_670_2005-01-24.html</a>",,4/17/2013 12:25:55 PM,,,30212.95,A0694F2A791E3DB4,Point,30212.9499,,,30487.051,Library@Esplanade,,,library
103.9698221,1.371090953,Loyang Tua Pek Kong Temple,"The Loyang Tua Pek Kong Temple, off Loyang Way, was established in the 1980s.",clampToGround,43191.19,,,,"<a target=""_blank"" href=""http://infopedia.nl.sg/articles/SIP_352_2004-12-27.html"">http://infopedia.nl.sg/articles/SIP_352_2004-12-27.html</a>",,4/17/2013 12:25:55 PM,,,39234.22,2C09411F20B22A7C,Point,39234.22,,,43191.19,Loyang Tua Pek Kong Temple,,,temple
103.852964,1.305556941,Dunlop Street,"Dunlop Street is in Little India, a one-way road connecting Jalan Besar to Serangoon Road.",clampToGround,30186.3499,,,,"<a target=""_blank"" href=""http://infopedia.nl.sg/articles/SIP_291_2004-12-13.html"">http://infopedia.nl.sg/articles/SIP_291_2004-12-13.html</a>",,4/17/2013 12:25:55 PM,,,31987.38,91BFF61D3CE4C76A,Point,31987.38,,,30186.35,Dunlop Street,,,shopping
103.843175,1.278246989,Duxton Road,Duxton Road was infamous in the 19th and early 20th centuries for its opium and gambling dens.,clampToGround,29096.94,,,,"<a target=""_blank"" href=""http://infopedia.nl.sg/articles/SIP_357_2005-01-22.html"">http://infopedia.nl.sg/articles/SIP_357_2005-01-22.html</a>",,4/17/2013 12:25:55 PM,,,28967.58,1D2755E20DC54F0D,Point,28967.58,,,29096.94,Duxton Road,,,district
103.84932,1.289065966,Presentment Bridge,"Presentment Bridge, the first named footbridge over the Singapore River, was located where Elgin Bridge now stands.",clampToGround,29780.82,,,,"<a target=""_blank"" href=""http://infopedia.nl.sg/articles/SIP_943_2005-01-06.html"">http://infopedia.nl.sg/articles/SIP_943_2005-01-06.html</a>",,4/17/2013 12:25:55 PM,,,30163.89,266C1714559457A1,Point,30163.89,,,29780.82,Presentment Bridge,,,bridge
103.850578,1.280441934,Telok Ayer Market,"The former Telok Ayer Market (now known as Lau Pa Sat, meaning old market) was completed in 1894.",clampToGround,29920.83,,,,"<a target=""_blank"" href=""http://infopedia.nl.sg/articles/SIP_810_2005-01-11.html"">http://infopedia.nl.sg/articles/SIP_810_2005-01-11.html</a>",,4/17/2013 12:25:55 PM,,,29210.29,E8EFF0E54B960324,Point,29210.2899,,,29920.83,Telok Ayer Market,,,market
103.84852,1.287130992,Ellenborough Market,"Ellenborough Market, market and trading centre in Ellenborough Street by the Singapore River, located in the Central Region of Singapore.",clampToGround,29691.79,,,,"<a target=""_blank"" href=""http://infopedia.nl.sg/articles/SIP_480_2005-01-07.html"">http://infopedia.nl.sg/articles/SIP_480_2005-01-07.html</a>",,4/17/2013 12:25:55 PM,,,29949.93,F257BA2B056F3227,Point,29949.9299,,,29691.79,Ellenborough Market,,,market
103.819509,1.307378913,Gleneagles Hospital,"Gleneagles Hospital, opened in 1959, is one of Singapore's largest private hospitals.",clampToGround,26463.12,,,,"<a target=""_blank"" href=""http://infopedia.nl.sg/articles/SIP_340_2004-12-15.html"">http://infopedia.nl.sg/articles/SIP_340_2004-12-15.html</a>",,4/17/2013 12:25:55 PM,,,32188.84,B1750FBA11F9517C,Point,32188.8399,,,26463.12,Gleneagles Hospital,,,hospital
103.9128579,1.394248948,Punggol,"The original Malay community in what was popularly known as Kampong Punggol, were mainly fishermen who had settled near the Dekar River mouth.",clampToGround,36851.6799,,,,"<a target=""_blank"" href=""http://infopedia.nl.sg/articles/SIP_719_2005-01-18.html"">http://infopedia.nl.sg/articles/SIP_719_2005-01-18.html</a>",,4/17/2013 12:25:55 PM,,,41794.63,E91B9FCA0775DE5A,Point,41794.63,,,36851.68,Punggol,,,district
103.843277,1.299132934,Penang Road,Penang Road begins as an offshoot from Orchard Road and ends at the junction of Somerset Road and Killiney Road.,clampToGround,29108.28,,,,"<a target=""_blank"" href=""http://infopedia.nl.sg/articles/SIP_286_2005-01-25.html"">http://infopedia.nl.sg/articles/SIP_286_2005-01-25.html</a>",,4/17/2013 12:25:55 PM,,,31277.04,2421956CD6BF18A5,Point,31277.0399,,,29108.28,Penang Road,,,district
103.8061059,1.294580957,Queenstown,"Development of Queenstown commenced in 1952, and by 1968 it had 19,372 dwelling units.",clampToGround,24971.4699,,,,"<a target=""_blank"" href=""http://infopedia.nl.sg/articles/SIP_404_2005-01-18.html"">http://infopedia.nl.sg/articles/SIP_404_2005-01-18.html</a>",,4/17/2013 12:25:55 PM,,,30773.72,2BDE977F64B3EE54,Point,30773.72,,,24971.47,Queenstown,,,district
103.8573099,1.301253936,Raffles Hospital,"Raffles Hospital, officially opened on 16 March 2002, is the second largest private general hospital in Singapore.",clampToGround,30670.0199,,,,"<a target=""_blank"" href=""http://infopedia.nl.sg/articles/SIP_338_2004-12-27.html"">http://infopedia.nl.sg/articles/SIP_338_2004-12-27.html</a>",,4/17/2013 12:25:55 PM,,,31511.58,7A48CDE9F46E23A1,Point,31511.58,,,30670.02,Raffles Hospital,,,hospital
103.81947,1.448127916,Sembawang Public Library,The Sembawang Public Library is the seventh rental library located in a shopping mall and the 17th Public Library of the National Library Board.,clampToGround,26458.87,,,,"<a target=""_blank"" href=""http://infopedia.nl.sg/articles/SIP_260_2005-01-03.html"">http://infopedia.nl.sg/articles/SIP_260_2005-01-03.html</a>",,4/17/2013 12:25:55 PM,,,47752.15,5A0F010001C84AC8,Point,47752.15,,,26458.87,Sembawang Public Library,,,library
103.8209859,1.252479991,Blakang Mati Artillery Barrack,"Blakang Mati Artillery Barracks was named after its location on Pulau Blakang Mati. It was used by the British and later, by the Singapore Armed Forces Artillery Unit till 1972",clampToGround,26627.46,,,,"<a target=""_blank"" href=""http://infopedia.nl.sg/articles/SIP_1598_2009-10-31.html"">http://infopedia.nl.sg/articles/SIP_1598_2009-10-31.html</a>",,4/17/2013 12:25:55 PM,,,26118.4,C0CA7DE1523ECD1C,Point,26118.4,,,26627.46,Blakang Mati Artillery Barrack,,,historic landmark
103.8009099,1.28672893,British Military Hospital,"Officially named British Military Hospital, Singapore, it came to be commonly called Alexandra Military Hospital",clampToGround,24393.19,,,,"<a target=""_blank"" href=""http://infopedia.nl.sg/articles/SIP_568_2005-01-24.html"">http://infopedia.nl.sg/articles/SIP_568_2005-01-24.html</a>",,4/17/2013 12:25:55 PM,,,29905.49,9F893E8CD7900019,Point,29905.49,,,24393.19,British Military Hospital,,,hospital
103.8394183,1.300443461,Glutton's Square,Glutton's Square was one of the most popular street dining areas in Singapore in the 1970s.,clampToGround,28678.8399,,,,"<a target=""_blank"" href=""http://infopedia.nl.sg/articles/SIP_470_2005-01-18.html"">http://infopedia.nl.sg/articles/SIP_470_2005-01-18.html</a>",,4/22/2013 3:41:48 PM,,,31421.95,E22F43067BDA7EC8,Point,31421.9499,,,28678.84,Glutton's Square,,,food
103.842349,1.288953678,Magazine Road,Magazine Road connects Havelock Road and Merchant Road.,clampToGround,29005.0099,,,,"<a target=""_blank"" href=""http://infopedia.nl.sg/articles/SIP_345_2004-12-27.html"">http://infopedia.nl.sg/articles/SIP_345_2004-12-27.html</a>",,4/22/2013 3:41:48 PM,,,30151.47,D44B4411370FF1F5,Point,30151.47,,,29005.01,Magazine Road,,,district
103.8814773,1.29645503,Singapore Swimming Club,"The Singapore Swimming Club, established in 1894 at Tanjong Rhu, by a group of Europeans.",clampToGround,33359.6399,,,,"<a target=""_blank"" href=""http://infopedia.nl.sg/articles/SIP_164_2004-12-30.html"">http://infopedia.nl.sg/articles/SIP_164_2004-12-30.html</a>",,4/22/2013 3:41:48 PM,,,30980.98,DBE6202E4728C169,Point,30980.98,,,33359.64,Singapore Swimming Club,,,swimming
103.8463213,1.286706314,Speakers' Corner,The Speakers' Corner was established on 1 September 2000 at Hong Lim Park.,clampToGround,29447.0899,,,,"<a target=""_blank"" href=""http://infopedia.nl.sg/articles/SIP_515_2005-01-25.html"">http://infopedia.nl.sg/articles/SIP_515_2005-01-25.html</a>",,4/22/2013 3:41:48 PM,,,29902.97,8E385C69B6A8078A,Point,29902.97,,,29447.09,Speakers' Corner,,,park
103.8913287,1.297091676,Meyer Road,Fort Road runs between Meyer Road and the East Coast Parkway.,clampToGround,34456.0099,,,,"<a target=""_blank"" href=""http://infopedia.nl.sg/articles/SIP_616_2005-01-24.html"">http://infopedia.nl.sg/articles/SIP_616_2005-01-24.html</a>",,4/22/2013 3:41:48 PM,,,31051.4,8A38BE2F78F5EBF7,Point,31051.4,,,34456.01,Meyer Road,,,district
103.8407717,1.292097798,Mohamed Sultan Road,Mohamed Sultan Road stretches from the junction of Saiboo Street and Martin Road to River Valley Road.,clampToGround,28829.4699,,,,"<a target=""_blank"" href=""http://infopedia.nl.sg/articles/SIP_285_2004-12-27.html"">http://infopedia.nl.sg/articles/SIP_285_2004-12-27.html</a>",,4/22/2013 3:41:48 PM,,,30499.13,0874D6D0A48089D8,Point,30499.13,,,28829.47,Mohamed Sultan Road,,,district
103.8537301,1.290157955,Cenotaph,Is a war memorial which commemorates the sacrifice of the men who perished during World War I and World War II.,clampToGround,30271.6299,,,,"<a target=""_blank"" href=""http://infopedia.nl.sg/articles/SIP_10_2004-12-17.html"">http://infopedia.nl.sg/articles/SIP_10_2004-12-17.html</a>",,4/22/2013 3:41:48 PM,,,30284.64,30696E122296C57F,Point,30284.64,,,30271.63,Cenotaph,,,historic landmark
103.8513423,1.287468482,Empress Place building,The Empress Place Building is one of the architectural treasures in the Empress Place civic area overlooking the Singapore River.,clampToGround,30005.8899,,,,"<a target=""_blank"" href=""http://infopedia.nl.sg/articles/SIP_1132_2006-04-05.html"">http://infopedia.nl.sg/articles/SIP_1132_2006-04-05.html</a>",,4/22/2013 3:41:48 PM,,,29987.25,83D17572630C6ABD,Point,29987.25,,,30005.89,Empress Place building,,,historic building
103.8491755,1.292023511,Hill Street Fire Station,"The Central Fire Station, also known as the Hill Street Fire Station, is Singapore?s oldest surviving fire station.",clampToGround,29764.74,,,,"<a target=""_blank"" href=""http://infopedia.nl.sg/articles/SIP_857_2004-12-15.html"">http://infopedia.nl.sg/articles/SIP_857_2004-12-15.html</a>",,4/22/2013 3:41:48 PM,,,30490.92,2FEDC7EEDF9C2303,Point,30490.9199,,,29764.74,Hill Street Fire Station,,,fire station
103.8735254,1.308642568,Kallang Airport,"Kallang Airport, Singapore's first civil airport, was completed at a cost of S$8 million and opened on 12 June 1937.",clampToGround,32474.6399,,,,"<a target=""_blank"" href=""http://infopedia.nl.sg/articles/SIP_6_2005-01-24.html"">http://infopedia.nl.sg/articles/SIP_6_2005-01-24.html</a>",,4/22/2013 3:41:48 PM,,,32328.6,40E6FCE10E8A4FC2,Point,32328.5999,,,32474.64,Kallang Airport,,,airport
103.7828706,1.294640649,National University Hospital (NUH),"National University Hospital, established in 1985, is Singapore's only university hospital.",clampToGround,22385.58,,,,"<a target=""_blank"" href=""http://infopedia.nl.sg/articles/SIP_381_2005-01-03.html"">http://infopedia.nl.sg/articles/SIP_381_2005-01-03.html</a>",,4/22/2013 3:41:48 PM,,,30780.36,FC6E7A7128394C1B,Point,30780.3599,,,22385.58,National University Hospital (NUH),,,hospital
103.7759487,1.29801586,National University of Singapore,The National University of Singapore (NUS) was inaugurated on 8 August 1980 with the merger of the Nanyang University (1956) and the University of Singapore (1962).,clampToGround,21615.24,,,,"<a target=""_blank"" href=""http://infopedia.nl.sg/articles/SIP_50_2005-01-17.html"">http://infopedia.nl.sg/articles/SIP_50_2005-01-17.html</a>",,4/22/2013 3:41:48 PM,,,31153.59,9FCE1C31219230CA,Point,31153.5899,,,21615.24,National University of Singapore,,,hospital
103.8471609,1.281012428,Amoy Street,Amoy Street begins at the junction of McCallum Street and Telok Ayer Street and ends at Pekin Street.,clampToGround,29540.54,,,,"<a target=""_blank"" href=""http://infopedia.nl.sg/articles/SIP_347_2004-12-24.html"">http://infopedia.nl.sg/articles/SIP_347_2004-12-24.html</a>",,4/17/2013 3:53:48 PM,,,29273.37,6812E16A646A1E3C,Point,29273.3699,,,29540.54,Amoy Street,,,shopping
103.8461289,1.298544993,Amber Mansions,"Was built in the 1920s and was owned by Joseph Elias, a prominent Jewish businessman",clampToGround,29425.6799,,,,"<a target=""_blank"" href=""http://infopedia.nl.sg/articles/SIP_587_2005-01-25.html"">http://infopedia.nl.sg/articles/SIP_587_2005-01-25.html</a>",,4/17/2013 12:25:55 PM,,,31212.03,8977BC31BFB920FC,Point,31212.0299,,,29425.68,Amber Mansions,,,house
103.900461,1.300247951,Amber Road,"Amber Road, an L-shaped road, connects the junction of Haig Road and Mountbatten Road to Tanjong Katong Road.",clampToGround,35472.3499,,,,"<a target=""_blank"" href=""http://infopedia.nl.sg/articles/SIP_332_2004-12-17.html"">http://infopedia.nl.sg/articles/SIP_332_2004-12-17.html</a>",,4/17/2013 12:25:55 PM,,,31400.43,624739370A401DCD,Point,31400.4299,,,35472.35,Amber Road,,,district
103.8487229,1.295565911,Central Public Library (Stamford Road),"The Central Public Library (CTCL) was located in the National Library Building at 91 Stamford Road, Singapore 178896, between 1960 to 2004.",clampToGround,29714.37,,,,"<a target=""_blank"" href=""http://infopedia.nl.sg/articles/SIP_675_2004-12-31.html"">http://infopedia.nl.sg/articles/SIP_675_2004-12-31.html</a>",,4/17/2013 12:25:55 PM,,,30882.62,EED188373B2E2DE9,Point,30882.6199,,,29714.37,Central Public Library (Stamford Road),,,library
103.9004559,1.308778999,Ceylon Road,"Ceylon Road, in Katong, connects East Coast Road and Crane Road.",clampToGround,35471.7599,,,,"<a target=""_blank"" href=""http://infopedia.nl.sg/articles/SIP_312_2004-12-15.html"">http://infopedia.nl.sg/articles/SIP_312_2004-12-15.html</a>",,4/17/2013 12:25:55 PM,,,32343.75,F5F0BB0DFE16A084,Point,32343.75,,,35471.76,Ceylon Road,,,district
103.749098,1.350762927,Bukit Batok,"Bukit Batok, is an estate located in the west of Singapore.",clampToGround,18627.19,,,,"<a target=""_blank"" href=""http://infopedia.nl.sg/articles/SIP_244_2005-01-26.html"">http://infopedia.nl.sg/articles/SIP_244_2005-01-26.html</a>",,4/17/2013 12:25:55 PM,,,36986.18,A08E23FFBA7E14C9,Point,36986.1799,,,18627.19,Bukit Batok,,,district
103.8492259,1.280779995,Boon Tat Street,Boon Tat Street is a one-way street located in the Central Business District (CBD).,clampToGround,29770.36,,,,"<a target=""_blank"" href=""http://infopedia.nl.sg/articles/SIP_296_2005-01-11.html"">http://infopedia.nl.sg/articles/SIP_296_2005-01-11.html</a>",,4/17/2013 12:25:55 PM,,,29247.67,F74843557E07F290,Point,29247.6699,,,29770.36,Boon Tat Street,,,shopping
103.83727,1.286205959,Outram Secondary School,"Outram Road School, now known as Outram Secondary School, was officially opened on 26 February 1906 by the Governor of Singapore, Sir John Anderson.",clampToGround,28439.7599,,,,"<a target=""_blank"" href=""http://infopedia.nl.sg/articles/SIP_583_2005-01-24.html"">http://infopedia.nl.sg/articles/SIP_583_2005-01-24.html</a>",,4/17/2013 12:25:55 PM,,,29847.64,55F4A2FF6037987B,Point,29847.64,,,28439.76,Outram Secondary School,,,school
103.9445248,1.356312,Tampines Regional Library,Tampines Regional Library was the first regional library to be built.,clampToGround,40375.979,,,,"<a target=""_blank"" href=""http://infopedia.nl.sg/articles/SIP_258_2004-12-31.html"">http://infopedia.nl.sg/articles/SIP_258_2004-12-31.html</a>",,4/17/2013 12:25:55 PM,,,37599.89,A8ED6DE12A592ED7,Point,37599.89,,,40375.979,Tampines Regional Library,,,library
103.9070829,1.30718894,Chin Mee Chin Confectionery,"Chin Mee Chin Confectionery, located at 204 East Coast Road, is a landmark coffeeshop in Katong.",clampToGround,36209.29,,,,"<a target=""_blank"" href=""http://infopedia.nl.sg/articles/SIP_618_2004-12-15.html"">http://infopedia.nl.sg/articles/SIP_618_2004-12-15.html</a>",,4/17/2013 12:25:55 PM,,,32167.95,A1B3F3B1B0ECB194,Point,32167.9499,,,36209.29,Chin Mee Chin Confectionery,,,food
103.854422,1.286806916,Merlion Statue,"The Merlion Statue, 8.6 m high and weighing 40 tons, is one of Singapore's national icon.",clampToGround,30348.6299,,,,"<a target=""_blank"" href=""http://infopedia.nl.sg/articles/SIP_938_2004-12-27.html"">http://infopedia.nl.sg/articles/SIP_938_2004-12-27.html</a>",,4/17/2013 12:25:55 PM,,,29914.1,8DC95B74B0825E54,Point,29914.0999,,,30348.63,Merlion Statue,,,public sculpture
103.7450394,1.384959287,Choa Chu Kang Public Library,"Choa Chu Kang Public Library, located at Lot 1, Shoppers' Mall, was the second library to be opened in a shopping mall.",clampToGround,18175.65,,,,"<a target=""_blank"" href=""http://infopedia.nl.sg/articles/SIP_673_2005-01-24.html"">http://infopedia.nl.sg/articles/SIP_673_2005-01-24.html</a>",,4/17/2013 12:25:55 PM,,,40767.46,94D7ED65903939F2,Point,40767.46,,,18175.65,Choa Chu Kang Public Library,,,library
103.9012789,1.306621978,Marshall Road,"Marshall Road, in Katong, runs parallel to Ceylon Road and connects Pennefather Road to East Coast Road.",clampToGround,35563.36,,,,"<a target=""_blank"" href=""http://infopedia.nl.sg/articles/SIP_313_2005-01-25.html"">http://infopedia.nl.sg/articles/SIP_313_2005-01-25.html</a>",,4/17/2013 12:25:55 PM,,,32105.24,C24928F600A290A0,Point,32105.24,,,35563.36,Marshall Road,,,district
103.8443219,1.287839945,Masjid Omar Kampong Melaka,Masjid Omar Kampong Melaka is Singapore's first and oldest mosque.,clampToGround,29224.58,,,,"<a target=""_blank"" href=""http://infopedia.nl.sg/articles/SIP_688_2004-12-27.html"">http://infopedia.nl.sg/articles/SIP_688_2004-12-27.html</a>",,4/17/2013 12:25:55 PM,,,30028.32,FB8F0D7B48B72742,Point,30028.32,,,29224.58,Masjid Omar Kampong Melaka,,,kampong
103.8488069,1.292519919,Singapore Freemasonry,"Freemasonry, fraternal society, first set up in Singapore, on 8 December 1845.",clampToGround,29723.7199,,,,"<a target=""_blank"" href=""http://infopedia.nl.sg/articles/SIP_962_2004-12-27.html"">http://infopedia.nl.sg/articles/SIP_962_2004-12-27.html</a>",,4/17/2013 12:25:55 PM,,,30545.81,FB21AB4030D4FBFC,Point,30545.81,,,29723.72,Singapore Freemasonry,,,building
103.8447049,1.280345924,Maxwell Road Food Centre,The Maxwell Road Food Centre began in the 1950s as a wet market for the Chinatown area.,clampToGround,29267.21,,,,"<a target=""_blank"" href=""http://infopedia.nl.sg/articles/SIP_926_2005-01-24.html"">http://infopedia.nl.sg/articles/SIP_926_2005-01-24.html</a>",,4/17/2013 12:25:55 PM,,,29199.67,12C11AC5683FA32D,Point,29199.6699,,,29267.21,Maxwell Road Food Centre,,,food
103.8528779,1.287302972,Anderson Bridge,"Anderson Bridge, crosses the mouth of the Singapore River, connects Empress Place with Collyer Quay.",clampToGround,30176.79,,,,"<a target=""_blank"" href=""http://infopedia.nl.sg/articles/SIP_923_2004-12-24.html"">http://infopedia.nl.sg/articles/SIP_923_2004-12-24.html</a>",,4/17/2013 12:25:55 PM,,,29968.95,9E3062C88FCBF1D7,Point,29968.9499,,,30176.79,Anderson Bridge,,,bridge
103.7771135,1.438823168,Marsiling Road,"Marsiling Road, a two-way street, connects Woodlands Centre Road and Riverside Road.",clampToGround,21745.24,,,,"<a target=""_blank"" href=""http://infopedia.nl.sg/articles/SIP_342_2005-01-06.html"">http://infopedia.nl.sg/articles/SIP_342_2005-01-06.html</a>",,4/17/2013 2:36:47 PM,,,46723.35,0E08B3D6ADF30381,Point,46723.3499,,,21745.24,Marsiling Road,,,district
104.4056402,1.312138582,Horsburgh Lighthouse,"Horsburgh Lighthouse, is located on Pedra Branca island, 54 km off the mainland of Singapore.",clampToGround,91695.0199,,,,"<a target=""_blank"" href=""http://infopedia.nl.sg/articles/SIP_107_2005-01-20.html"">http://infopedia.nl.sg/articles/SIP_107_2005-01-20.html</a>",,4/17/2013 2:36:48 PM,,,32722.42,8AF5B087EF43F2A3,Point,32722.4199,,,91695.02,Horsburgh Lighthouse,,,lighthouse
103.8474699,1.297204989,Wesley Methodist Church,"Methodism in Singapore began in early 1885, after the arrival of the Reverend William Fitzjones Oldham (b.1854 - d.1937) who became the first resident Methodist missionary.",clampToGround,29574.9199,,,,"<a target=""_blank"" href=""http://infopedia.nl.sg/articles/SIP_59_2005-01-04.html"">http://infopedia.nl.sg/articles/SIP_59_2005-01-04.html</a>",,4/17/2013 12:25:55 PM,,,31063.86,75B1F067AB335259,Point,31063.8599,,,29574.92,Wesley Methodist Church,,,church
103.852495,1.285874983,Whiteaway Laidlaw,Whiteaway Laidlaw was a premier department store in the early 20th century.,clampToGround,30134.1699,,,,"<a target=""_blank"" href=""http://infopedia.nl.sg/articles/SIP_1122_2006-06-15.html"">http://infopedia.nl.sg/articles/SIP_1122_2006-06-15.html</a>",,4/17/2013 12:25:55 PM,,,29811.05,FEF16A9277E95500,Point,29811.05,,,30134.17,Whiteaway Laidlaw,,,historic building
103.770027,1.440570935,Woodlands,"Woodlands derives its name, possibly from the rubber trees that once dominated the landscape in the past.",clampToGround,20956.62,,,,"<a target=""_blank"" href=""http://infopedia.nl.sg/articles/SIP_362_2004-12-16.html"">http://infopedia.nl.sg/articles/SIP_362_2004-12-16.html</a>",,4/17/2013 12:25:55 PM,,,46916.63,33173479D1347B1F,Point,46916.63,,,20956.62,Woodlands,,,district
103.7866099,1.436992952,Woodlands MRT station,Woodlands MRT station was constructed as a part of the Woodlands MRT line built in the early 1990s connecting Choa Chu Kang to Yishun.,clampToGround,22802.04,,,,"<a target=""_blank"" href=""http://infopedia.nl.sg/articles/SIP_366_2005-01-10.html"">http://infopedia.nl.sg/articles/SIP_366_2005-01-10.html</a>",,4/17/2013 12:25:55 PM,,,46520.95,D08E659B0F1B717E,Point,46520.9499,,,22802.04,Woodlands MRT station,,,station
103.856069,1.303191911,The Church of our Lady of Lourdes,"The Church of our Lady of Lourdes is located at 50 Ophir Road, near Serangoon Road.",clampToGround,30531.91,,,,"<a target=""_blank"" href=""http://infopedia.nl.sg/articles/SIP_607_2004-12-17.html"">http://infopedia.nl.sg/articles/SIP_607_2004-12-17.html</a>",,4/17/2013 12:25:55 PM,,,31725.87,E671743DFD3D380C,Point,31725.8699,,,30531.91,The Church of our Lady of Lourdes,,,church
103.6324539,1.351164992,Tuas Causeway,"The Tuas Causeway, a 1.9 km-long bridge linking Tuas and Tanjung Kupang in Johor, was officially opened on 18 April 1998.",clampToGround,5645.98,,,,"<a target=""_blank"" href=""http://infopedia.nl.sg/articles/SIP_844_2005-01-07.html"">http://infopedia.nl.sg/articles/SIP_844_2005-01-07.html</a>",,4/17/2013 12:25:55 PM,,,37031.4,7BA3D245F89D8F9A,Point,37031.4,,,5645.98,Tuas Causeway,,,bridge
103.895047,1.392151995,Sengkang Public Library,"The Sengkang Public Library is located at 1, Sengkang Square, Compass Point, #04-26/27, Singapore 545078.",clampToGround,34869.5599,,,,"<a target=""_blank"" href=""http://infopedia.nl.sg/articles/SIP_671_2005-01-24.html"">http://infopedia.nl.sg/articles/SIP_671_2005-01-24.html</a>",,4/17/2013 12:25:55 PM,,,41562.7,A845082C44CF853D,Point,41562.6999,,,34869.56,Sengkang Public Library,,,library
103.8458279,1.280872982,Ann Siang Road,"Ann Siang Road, in Chinatown, begins from a road known as Ann Siang Hill and ends near the Ann Siang Building and the historical site of Anglo-Chinese School.",clampToGround,29392.19,,,,"<a target=""_blank"" href=""http://infopedia.nl.sg/articles/SIP_329_2005-01-20.html"">http://infopedia.nl.sg/articles/SIP_329_2005-01-20.html</a>",,4/17/2013 12:25:55 PM,,,29257.95,C9C2BA2B53DF62FB,Point,29257.9499,,,29392.19,Ann Siang Road,,,district
103.9041009,1.307636958,Joo Chiat Branch Library (Part-Time),Joo Chiat Branch Library (Part-time) (April 1954 - June 1974) was the third branch library of the Raffles Library.,clampToGround,35877.4199,,,,"<a target=""_blank"" href=""http://infopedia.nl.sg/articles/SIP_901_2004-12-16.html"">http://infopedia.nl.sg/articles/SIP_901_2004-12-16.html</a>",,4/17/2013 12:25:55 PM,,,32217.48,3042A8D7B590484C,Point,32217.48,,,35877.42,Joo Chiat Branch Library (Part-Time),,,library
103.847868,1.28384797,China Street,China Street connects Cross Street to the junction of Pickering Street and Church Street.,clampToGround,29619.23,,,,"<a target=""_blank"" href=""http://infopedia.nl.sg/articles/SIP_316_2005-01-11.html"">http://infopedia.nl.sg/articles/SIP_316_2005-01-11.html</a>",,4/17/2013 12:25:55 PM,,,29586.91,8BE4AB7384FED04D,Point,29586.91,,,29619.23,China Street,,,shopping
103.8554319,1.308892941,Desker Road,"Andre Filipe Desker (1826 - 1898), of Dutch-Eurasian ancestry, was a charitable donor to major Catholic schools and churches.",clampToGround,30461.0099,,,,"<a target=""_blank"" href=""http://infopedia.nl.sg/articles/SIP_737_2005-01-24.html"">http://infopedia.nl.sg/articles/SIP_737_2005-01-24.html</a>",,4/17/2013 12:25:55 PM,,,32356.26,22D95AA4AE1127AE,Point,32356.2599,,,30461.01,Desker Road,,,district
103.852854,1.304120992,Sungei Road,Sungei Road begins at the junction of Selegie Road and Serangoon Road and runs along the Rochor Canal.,clampToGround,30174.11,,,,"<a target=""_blank"" href=""http://infopedia.nl.sg/articles/SIP_588_2004-12-23.html"">http://infopedia.nl.sg/articles/SIP_588_2004-12-23.html</a>",,4/17/2013 12:25:55 PM,,,31828.6,0D25C075B87471B2,Point,31828.5999,,,30174.11,Sungei Road,,,district
103.843471,1.284858981,Great Southern Hotel,"a.k.a. Southern Hotel / Nam Tin Hotel, was a boutique hotel which started its services in 1936.",clampToGround,29129.8799,,,,"<a target=""_blank"" href=""http://infopedia.nl.sg/articles/SIP_479_2004-12-15.html"">http://infopedia.nl.sg/articles/SIP_479_2004-12-15.html</a>",,4/17/2013 12:25:55 PM,,,29698.7,1E03B2DAC50255AD,Point,29698.6999,,,29129.88,Great Southern Hotel,,,hotel
103.8325859,1.276918948,Gurdwara Sahib Silat Road (Silat Road Sikh Temple),"Takes its name from its location which is in Silat Road, now renamed Jalan Bukit Merah.",clampToGround,27918.46,,,,"<a target=""_blank"" href=""http://infopedia.nl.sg/articles/SIP_402_2004-12-14.html"">http://infopedia.nl.sg/articles/SIP_402_2004-12-14.html</a>",,4/17/2013 12:25:55 PM,,,28820.73,FDC0D6678A130D79,Point,28820.73,,,27918.46,Gurdwara Sahib Silat Road (Silat Road Sikh Temple),,,temple
103.8524509,1.287192914,Dalhousie Obelisk,"Dalhousie Obelisk, landmark, located at Empress Place in the Central Region.",clampToGround,30129.2699,,,,"<a target=""_blank"" href=""http://infopedia.nl.sg/articles/SIP_481_2005-01-20.html"">http://infopedia.nl.sg/articles/SIP_481_2005-01-20.html</a>",,4/17/2013 12:25:55 PM,,,29956.78,B3A7E79589AEB624,Point,29956.7799,,,30129.27,Dalhousie Obelisk,,,historic landmark
103.850334,1.301774998,David Elias building,"David Elias building, built in 1928, is situated at the junction of Short Street and Middle Road.",clampToGround,29893.66,,,,"<a target=""_blank"" href=""http://infopedia.nl.sg/articles/SIP_274_2005-01-05.html"">http://infopedia.nl.sg/articles/SIP_274_2005-01-05.html</a>",,4/17/2013 12:25:55 PM,,,31569.19,880A78E9FAD2A97F,Point,31569.1899,,,29893.66,David Elias building,,,historic building
103.8334969,1.29226991,Kim Seng Road,"Kim Seng Road, street, the east boundary of the Bukit Merah area, is located within the Central Region.",clampToGround,28019.8499,,,,"<a target=""_blank"" href=""http://infopedia.nl.sg/articles/SIP_217_2004-12-27.html"">http://infopedia.nl.sg/articles/SIP_217_2004-12-27.html</a>",,4/17/2013 12:25:55 PM,,,30518.16,4EAF47F381EFA46A,Point,30518.16,,,28019.85,Kim Seng Road,,,district
103.7931843,1.413675961,Mandai Road,The name first appeared on the 1828 Franklin &amp; Jackson's Plan of Singapore when a river called Mandai River was marked on it.,clampToGround,23533.62,,,,"<a target=""_blank"" href=""http://infopedia.nl.sg/articles/SIP_341_2005-01-18.html"">http://infopedia.nl.sg/articles/SIP_341_2005-01-18.html</a>",,4/17/2013 3:53:48 PM,,,43942.66,52EEF0FFE241305D,Point,43942.66,,,23533.62,Mandai Road,,,district
103.853337,1.29616095,Odeon Cinema,Odeon was Cathay Organisation's flagship cinema and its most successful box-office earner in Singapore.,clampToGround,30227.87,,,,"<a target=""_blank"" href=""http://infopedia.nl.sg/articles/SIP_1143_2006-06-21.html"">http://infopedia.nl.sg/articles/SIP_1143_2006-06-21.html</a>",,4/22/2013 3:41:48 PM,,,30948.42,4CAB1C37F7D9474F,Point,30948.4199,,,30227.87,Odeon Cinema,,,theatre
103.7688411,1.352782075,Old (Former) Ford Factory,"The former Ford Factory, located at Upper Bukit Timah Road, was the first motorcar assembly plant in Southeast Asia.",clampToGround,20824.3899,,,,"<a target=""_blank"" href=""http://infopedia.nl.sg/articles/SIP_823_2004-12-13.html"">http://infopedia.nl.sg/articles/SIP_823_2004-12-13.html</a>",,4/22/2013 3:41:48 PM,,,37209.38,4DA5EE1C4F6CAB63,Point,37209.38,,,20824.39,Old (Former) Ford Factory,,,historic landmark
103.8509693,1.302808863,Short Street,Short Street connects Selegie Road to Rochor Canal Road.,clampToGround,29964.36,,,,"<a target=""_blank"" href=""http://infopedia.nl.sg/articles/SIP_271_2005-01-25.html"">http://infopedia.nl.sg/articles/SIP_271_2005-01-25.html</a>",,4/22/2013 3:41:48 PM,,,31683.51,A02869CD6EFC5CE8,Point,31683.5099,,,29964.36,Short Street,,,shopping
103.8343281,1.279120173,Singapore General Hospital (SGH),"Singapore General Hospital (SGH), established in 1821, is Singapore's first general hospital and oldest medical institution.",clampToGround,28112.3499,,,,"<a target=""_blank"" href=""http://infopedia.nl.sg/articles/SIP_383_2005-01-03.html"">http://infopedia.nl.sg/articles/SIP_383_2005-01-03.html</a>",,4/22/2013 3:41:48 PM,,,29064.13,C54B2B5C4049EA39,Point,29064.13,,,28112.35,Singapore General Hospital (SGH),,,hospital
103.90452,1.303304952,Roxy Cinema,"Roxy cinema, a.k.a Roxy theatre, now demolished, used to be located at the junction of East Coast Road and Brooke Road.",clampToGround,35924.07,,,,"<a target=""_blank"" href=""http://infopedia.nl.sg/articles/SIP_612_2005-01-24.html"">http://infopedia.nl.sg/articles/SIP_612_2005-01-24.html</a>",,4/17/2013 12:25:55 PM,,,31738.47,35FBEEBCBFDC7D19,Point,31738.47,,,35924.07,Roxy Cinema,,,theatre
103.8551229,1.289008948,Satay Club,"An extinct open-air food centre filled with hawkers selling satay, a popular local steak.",clampToGround,30426.6399,,,,"<a target=""_blank"" href=""http://infopedia.nl.sg/articles/SIP_1027_2006-08-12.html"">http://infopedia.nl.sg/articles/SIP_1027_2006-08-12.html</a>",,4/17/2013 12:25:55 PM,,,30157.59,EF5B8A1A8CB19665,Point,30157.5899,,,30426.64,Satay Club,,,food
103.842871,1.289284945,Tan Si Chong Su temple (Tan clan temple),"Tan Si Chong Su, was built in 1876 as the ancestral temple and assembly hall of the Tan community in Singapore.",clampToGround,29063.0999,,,,"<a target=""_blank"" href=""http://infopedia.nl.sg/articles/SIP_289_2005-01-24.html"">http://infopedia.nl.sg/articles/SIP_289_2005-01-24.html</a>",,4/17/2013 12:25:55 PM,,,30188.1,FC36764A3C8AA15B,Point,30188.0999,,,29063.1,Tan Si Chong Su temple (Tan clan temple),,,temple
103.8446389,1.283182917,Pagoda Street,"Pagoda Street, in Chinatown, links New Bridge Road and South Bridge Road.",clampToGround,29259.86,,,,"<a target=""_blank"" href=""http://infopedia.nl.sg/articles/SIP_321_2005-01-11.html"">http://infopedia.nl.sg/articles/SIP_321_2005-01-11.html</a>",,4/17/2013 12:25:55 PM,,,29513.37,C370C8CF4E71E88D,Point,29513.3699,,,29259.86,Pagoda Street,,,shopping
103.8345429,1.295206925,Panglima Prang (House),"Demolished in 1982, Panglima Prang was a 19th century Straits Chinese bungalow built by Tan Jiak Kim (b. 29 April 1859, Singapore - d. 22 October 1917, Singapore).",clampToGround,28136.2599,,,,"<a target=""_blank"" href=""http://infopedia.nl.sg/articles/SIP_1131_2006-04-05.html"">http://infopedia.nl.sg/articles/SIP_1131_2006-04-05.html</a>",,4/17/2013 12:25:55 PM,,,30842.92,9044DFEF64985DE7,Point,30842.9199,,,28136.26,Panglima Prang (House),,,house
103.8473929,1.284094955,Nankin Street,"Nankin Street, a one-way street in Chinatown, connects South Bridge Road to China Street.",clampToGround,29566.36,,,,"<a target=""_blank"" href=""http://infopedia.nl.sg/articles/SIP_311_2004-12-16.html"">http://infopedia.nl.sg/articles/SIP_311_2004-12-16.html</a>",,4/17/2013 12:25:55 PM,,,29614.22,32B69EE76BC97753,Point,29614.22,,,29566.36,Nankin Street,,,shopping
103.8627469,1.300254917,Nicoll Highway Collapse,"A disaster that struck on Tuesday 20 April 2004, rendering it unpassable for many months.",clampToGround,31275.11,,,,"<a target=""_blank"" href=""http://infopedia.nl.sg/articles/SIP_430_2004-12-17.html"">http://infopedia.nl.sg/articles/SIP_430_2004-12-17.html</a>",,4/17/2013 12:25:55 PM,,,31401.12,FF54078DB7D9D910,Point,31401.1199,,,31275.11,Nicoll Highway Collapse,,,highway
103.8368769,1.302282944,Orchard Road,"Orchard Road, a street that is located in the Central Region.",clampToGround,28396.0099,,,,"<a target=""_blank"" href=""http://infopedia.nl.sg/articles/SIP_721_2005-01-03.html"">http://infopedia.nl.sg/articles/SIP_721_2005-01-03.html</a>",,4/17/2013 12:25:55 PM,,,31625.35,ECC8DE6ABB7FD4A9,Point,31625.3499,,,28396.01,Orchard Road,,,shopping
103.8612249,1.31282298,Lavender Street,Connects the junction of Balestier Road and Serangoon Road to the junction of Kallang Road and Crawford Street.,clampToGround,31105.71,,,,"<a target=""_blank"" href=""http://infopedia.nl.sg/articles/SIP_380_2005-01-26.html"">http://infopedia.nl.sg/articles/SIP_380_2005-01-26.html</a>",,4/17/2013 12:25:55 PM,,,32790.83,365575EF3B35B533,Point,32790.83,,,31105.71,Lavender Street,,,shopping
103.8397532,1.300395439,Library@Orchard,"Library@Orchard, officially opened on 21 October 1999, is located on the fifth floor of the Ngee Ann City Shopping Mall",clampToGround,28716.12,,,,"<a target=""_blank"" href=""http://infopedia.nl.sg/articles/SIP_253_2005-01-24.html"">http://infopedia.nl.sg/articles/SIP_253_2005-01-24.html</a>",,10/24/2014 3:38:32 PM,,,31416.64,82C2AC3D82D78742,Point,31416.64,,,28716.12,Library@Orchard,,,library
103.8456459,1.37469493,Ang Mo Kio Public Library,Ang Mo Kio Public Library was the fifth full-time branch library built by the National Library.,clampToGround,29371.8799,,,,"<a target=""_blank"" href=""http://infopedia.nl.sg/articles/SIP_961_2005-01-22.html"">http://infopedia.nl.sg/articles/SIP_961_2005-01-22.html</a>",,4/17/2013 12:25:55 PM,,,39632.3,CD6FFB18961F8F86,Point,39632.3,,,29371.88,Ang Mo Kio Public Library,,,library
103.8560149,1.299872983,Bugis Junction (Indoor Streets of Bugis),"A pedestrian shopping mall, is made up of three streets - Malabar Street, Malay Street and Hylam Street.",clampToGround,30525.9,,,,"<a target=""_blank"" href=""http://infopedia.nl.sg/articles/SIP_297_2004-12-20.html"">http://infopedia.nl.sg/articles/SIP_297_2004-12-20.html</a>",,4/17/2013 12:25:55 PM,,,31358.88,73297A3A5D34CF0D,Point,31358.88,,,30525.9,Bugis Junction (Indoor Streets of Bugis),,,shopping
103.843497,1.280981969,Banda Street,"Banda Street, a very short one-way road in Chinatown, connects Sago Street to Dickenson Road.",clampToGround,29132.7699,,,,"<a target=""_blank"" href=""http://infopedia.nl.sg/articles/SIP_305_2005-01-11.html"">http://infopedia.nl.sg/articles/SIP_305_2005-01-11.html</a>",,4/17/2013 12:25:55 PM,,,29270,59F4C1CAED06949C,Point,29270,,,29132.77,Banda Street,,,shopping
103.851764,1.285078966,Battery Road,Battery Road takes its name from the Battery Point of Fort Fullerton which was situated where Fullerton Square is today.,clampToGround,30052.82,,,,"<a target=""_blank"" href=""http://infopedia.nl.sg/articles/SIP_237_2005-01-25.html"">http://infopedia.nl.sg/articles/SIP_237_2005-01-25.html</a>",,4/17/2013 12:25:55 PM,,,29723.03,35CC15B11F1F58DA,Point,29723.0299,,,30052.82,Battery Road,,,district
103.8590049,1.299291991,Beach Road,"In Sir Stamford Raffles' 1822 City Plan Beach Road was set aside for the European community, and so the earliest buildings on this street were European dwelling houses, mostly bungalows.",clampToGround,30858.66,,,,"<a target=""_blank"" href=""http://infopedia.nl.sg/articles/SIP_889_2004-12-23.html"">http://infopedia.nl.sg/articles/SIP_889_2004-12-23.html</a>",,4/17/2013 12:25:55 PM,,,31294.64,E129DA6D4054CD2B,Point,31294.64,,,30858.66,Beach Road,,,district
103.841837,1.275951987,Yan Kit Road,"Yan Kit Road, a one-way street, connects Craig Road to Cantonment Road.",clampToGround,28948.03,,,,"<a target=""_blank"" href=""http://infopedia.nl.sg/articles/SIP_354_2004-12-16.html"">http://infopedia.nl.sg/articles/SIP_354_2004-12-16.html</a>",,4/17/2013 12:25:55 PM,,,28713.81,588A5CE702566F12,Point,28713.81,,,28948.03,Yan Kit Road,,,district
103.8510449,1.291168964,Adelphi Hotel,The Adelphi Hotel was first established in possibly Commercial Square (Raffles Place) in 1863.,clampToGround,29972.79,,,,"<a target=""_blank"" href=""http://infopedia.nl.sg/articles/SIP_1109_2006-04-07.html"">http://infopedia.nl.sg/articles/SIP_1109_2006-04-07.html</a>",,4/17/2013 12:25:55 PM,,,30396.43,F7AEBF31AFFDC0B5,Point,30396.4299,,,29972.79,Adelphi Hotel,,,hotel
103.853447,1.30214694,Albert Street,"Albert Street, begins from the junction of Queen Street and New Bugis Street and ends at Selegie Road.",clampToGround,30240.11,,,,"<a target=""_blank"" href=""http://infopedia.nl.sg/articles/SIP_279_2005-01-26.html"">http://infopedia.nl.sg/articles/SIP_279_2005-01-26.html</a>",,4/17/2013 12:25:55 PM,,,31610.32,7D64EEEC48F0FA8F,Point,31610.32,,,30240.11,Albert Street,,,shopping
103.881501,1.32196091,Aljunied Road,"Aljunied Road, a road in the northern boundary of the Geylang area, stretches from Macpherson Road to Geylang Road.",clampToGround,33362.2199,,,,"<a target=""_blank"" href=""http://infopedia.nl.sg/articles/SIP_827_2005-01-26.html"">http://infopedia.nl.sg/articles/SIP_827_2005-01-26.html</a>",,4/17/2013 12:25:55 PM,,,33801.29,463E50C3B4EE041C,Point,33801.2899,,,33362.22,Aljunied Road,,,district
103.8741559,1.334388999,Alkaff Lake Gardens,"The Alkaff Lake Gardens, part of the vanished landmarks of our national heritage, was located off MacPherson Road",clampToGround,32544.7699,,,,"<a target=""_blank"" href=""http://infopedia.nl.sg/articles/SIP_604_2005-01-24.html"">http://infopedia.nl.sg/articles/SIP_604_2005-01-24.html</a>",,4/17/2013 12:25:55 PM,,,35175.51,A6EF66DC0973A2EF,Point,35175.5099,,,32544.77,Alkaff Lake Gardens,,,garden
103.8166169,1.305931912,Minden Road,Minden Road connects Harding Road and Napier Road.,clampToGround,26141.2599,,,,"<a target=""_blank"" href=""http://infopedia.nl.sg/articles/SIP_314_2005-01-26.html"">http://infopedia.nl.sg/articles/SIP_314_2005-01-26.html</a>",,4/17/2013 12:25:55 PM,,,32028.84,A1F2F2A78FF176C7,Point,32028.8399,,,26141.26,Minden Road,,,district
103.835484,1.305404994,Mount Elizabeth Hospital (MEH),"Mount Elizabeth Hospital (MEH), established in 1979, is Singapore's largest private hospital.",clampToGround,28240.99,,,,"<a target=""_blank"" href=""http://infopedia.nl.sg/articles/SIP_359_2005-01-31.html"">http://infopedia.nl.sg/articles/SIP_359_2005-01-31.html</a>",,4/17/2013 12:25:55 PM,,,31970.57,1C14A8A38EDFB1CA,Point,31970.57,,,28240.99,Mount Elizabeth Hospital (MEH),,,hospital
103.82471,1.26912792,Mount Faber,"Mount Faber, hill, is located in the Bukit Merah area of the Central Region.",clampToGround,27041.9299,,,,"<a target=""_blank"" href=""http://infopedia.nl.sg/articles/SIP_29_2005-01-25.html"">http://infopedia.nl.sg/articles/SIP_29_2005-01-25.html</a>",,4/17/2013 12:25:55 PM,,,27959.24,CBDE70A5BB80CDA2,Point,27959.24,,,27041.93,Mount Faber,,,hill
103.8462549,1.301012914,Mount Sophia,Mount Sophia was originally named Bukit Seligi or Seligi Hill.,clampToGround,29439.7,,,,"<a target=""_blank"" href=""http://infopedia.nl.sg/articles/SIP_482_2004-12-27.html"">http://infopedia.nl.sg/articles/SIP_482_2004-12-27.html</a>",,4/17/2013 12:25:55 PM,,,31484.92,C976EA6B37335727,Point,31484.9199,,,29439.7,Mount Sophia,,,district
103.883535,1.302920925,Mountbatten Estate,"Mountbatten Estate, with a total area of 161 ha, is one of 5 subzones in the Marine Parade area.",clampToGround,33588.6299,,,,"<a target=""_blank"" href=""http://infopedia.nl.sg/articles/SIP_851_2005-01-05.html"">http://infopedia.nl.sg/articles/SIP_851_2005-01-05.html</a>",,4/17/2013 12:25:55 PM,,,31695.95,F5913EB718099BDE,Point,31695.9499,,,33588.63,Mountbatten Estate,,,house
103.847792,1.299321924,Cathay Building,"Cathay Building, located at the foot of Mount Sophia, was once the tallest building in Singapore.",clampToGround,29610.7599,,,,"<a target=""_blank"" href=""http://infopedia.nl.sg/articles/SIP_532_2004-12-17.html"">http://infopedia.nl.sg/articles/SIP_532_2004-12-17.html</a>",,4/17/2013 12:25:55 PM,,,31297.94,94E518CFD6F8BAA3,Point,31297.9399,,,29610.76,Cathay Building,,,shopping
103.761971,1.425255939,Kranji MRT station,"Built as part of the Woodlands Extension Line, connecting Choa Chu Kang to Yishun through Woodlands.",clampToGround,20060.0599,,,,"<a target=""_blank"" href=""http://infopedia.nl.sg/articles/SIP_365_2005-01-28.html"">http://infopedia.nl.sg/articles/SIP_365_2005-01-28.html</a>",,4/17/2013 12:25:55 PM,,,45223.2,81CA4080091F1B1A,Point,45223.1999,,,20060.06,Kranji MRT station,,,station
103.7557809,1.430735997,Kranji Road,"A two-way road, begins from the junction of Woodlands Road and Turf Club Avenue and ends near Kranji Loop.",clampToGround,19371.2199,,,,"<a target=""_blank"" href=""http://infopedia.nl.sg/articles/SIP_384_2005-01-20.html"">http://infopedia.nl.sg/articles/SIP_384_2005-01-20.html</a>",,4/17/2013 12:25:55 PM,,,45829.18,38BA85B11F8EE3CD,Point,45829.1799,,,19371.22,Kranji Road,,,district
103.860372,1.223600969,Kusu Island,The earliest mention of Kusu Reef was in the 17th century.,clampToGround,31010.8899,,,,"<a target=""_blank"" href=""http://infopedia.nl.sg/articles/SIP_233_2005-01-20.html"">http://infopedia.nl.sg/articles/SIP_233_2005-01-20.html</a>",,4/17/2013 12:25:55 PM,,,22925.12,A126FDEB2BBC68D1,Point,22925.1199,,,31010.89,Kusu Island,,,island
103.8529339,1.300906969,Kwan Im Thong Hood Cho Temple,Kwan Im Thong Hood Cho Temple is a popular place of worship for local devotees of Kuan Yin or Guan Yin.,clampToGround,30183.0099,,,,"<a target=""_blank"" href=""http://infopedia.nl.sg/articles/SIP_275_2005-01-03.html"">http://infopedia.nl.sg/articles/SIP_275_2005-01-03.html</a>",,4/17/2013 12:25:55 PM,,,31473.21,7742E9700AC3745D,Point,31473.21,,,30183.01,Kwan Im Thong Hood Cho Temple,,,temple
103.851253,1.296027934,Cathedral of the Good Shepherd,The Cathedral of the Good Shepherd stands at the junction of Queen Street and Bras Basah Road.,clampToGround,29995.94,,,,"<a target=""_blank"" href=""http://infopedia.nl.sg/articles/SIP_756_2004-12-17.html"">http://infopedia.nl.sg/articles/SIP_756_2004-12-17.html</a>",,4/17/2013 12:25:55 PM,,,30933.71,00988AB11B340ED2,Point,30933.71,,,29995.94,Cathedral of the Good Shepherd,,,church
103.851599,1.282210955,Finlayson Green,"Finlayson Green is a triangular island oasis of flowering shrubs and trees, designed for visual pleasantness.",clampToGround,30034.46,,,,"<a target=""_blank"" href=""http://infopedia.nl.sg/articles/SIP_724_2005-01-17.html"">http://infopedia.nl.sg/articles/SIP_724_2005-01-17.html</a>",,4/17/2013 12:25:55 PM,,,29405.9,51FC539127181A46,Point,29405.9,,,30034.46,Finlayson Green,,,building
103.836251,1.284965986,Outram,"Prior to 1853, it was known as Cantonment Road.",clampToGround,28326.3499,,,,"<a target=""_blank"" href=""http://infopedia.nl.sg/articles/SIP_733_2005-01-25.html"">http://infopedia.nl.sg/articles/SIP_733_2005-01-25.html</a>",,4/17/2013 12:25:55 PM,,,29710.53,B584611D3D2A3614,Point,29710.5299,,,28326.35,Outram,,,district
103.8606407,1.301711872,Sultan Gate,Sultan Gate is the name of a road leading to the Istana Kampong Glam (once the seat of Malay royalty in Singapore).,clampToGround,31040.7,,,,"<a target=""_blank"" href=""http://infopedia.nl.sg/articles/SIP_897_2004-12-23.html"">http://infopedia.nl.sg/articles/SIP_897_2004-12-23.html</a>",,4/22/2013 3:41:48 PM,,,31562.22,406EE0CAC9891E27,Point,31562.22,,,31040.7,Sultan Gate,,,food
103.8460293,1.321194627,Tan Tock Seng Hospital (TTSH),Tan Teck Guan Building was built in 1911 to add to the existing facilities of the Straits and Federated Malay States Government Medical School (later known as King Edward VII College of Medicine).,clampToGround,29414.58,,,,"<a target=""_blank"" href=""http://infopedia.nl.sg/articles/SIP_1408_2009-01-06.html"">http://infopedia.nl.sg/articles/SIP_1408_2009-01-06.html</a>",,4/22/2013 3:41:48 PM,,,33716.51,A6D561673A7454F4,Point,33716.5099,,,29414.58,Tan Tock Seng Hospital (TTSH),,,hospital
103.8838328,1.298046847,Tanjong Rhu Road,Tanjong Rhu Road was named after the Casuarina trees that grew along the coast of Kallang and Rochore.,clampToGround,33621.78,,,,"<a target=""_blank"" href=""http://infopedia.nl.sg/articles/SIP_625_2004-12-31.html"">http://infopedia.nl.sg/articles/SIP_625_2004-12-31.html</a>",,4/22/2013 3:41:48 PM,,,31157,15C9E5261544E750,Point,31157,,,33621.78,Tanjong Rhu Road,,,district
103.8393058,1.313361498,Newton Circus,The location used to be the second station for the first railway track in Singapore which had its first station in Tank Road.,clampToGround,28666.32,,,,"<a target=""_blank"" href=""http://infopedia.nl.sg/articles/SIP_866_2005-01-19.html"">http://infopedia.nl.sg/articles/SIP_866_2005-01-19.html</a>",,4/22/2013 3:41:48 PM,,,32850.36,0CAC50589766BB1F,Point,32850.3599,,,28666.32,Newton Circus,,,circus
103.8500609,1.302882937,Selegie Road,Selegie Road lies between Prinsep Street and Serangoon Road.,clampToGround,29863.2699,,,,"<a target=""_blank"" href=""http://infopedia.nl.sg/articles/SIP_586_2004-12-30.html"">http://infopedia.nl.sg/articles/SIP_586_2004-12-30.html</a>",,4/17/2013 12:25:55 PM,,,31691.7,2B9EF5CABCFA2E5E,Point,31691.6999,,,29863.27,Selegie Road,,,district
103.7431069,1.383454987,Choa Chu Kang,"Between the late 18th to early 19th century, Chinese immigrants settled along the river, Sungei Berih.",clampToGround,17960.5899,,,,"<a target=""_blank"" href=""http://infopedia.nl.sg/articles/SIP_182_2005-01-20.html"">http://infopedia.nl.sg/articles/SIP_182_2005-01-20.html</a>",,4/17/2013 12:25:55 PM,,,40601.13,1E1D4125274A9A02,Point,40601.13,,,17960.59,Choa Chu Kang,,,district
103.8572489,1.293757929,Suntec City,Suntec City began construction in 1989 and was largely completed by March 1995 at a cost of US$2.3 billion.,clampToGround,30663.24,,,,"<a target=""_blank"" href=""http://infopedia.nl.sg/articles/SIP_554_2004-12-23.html"">http://infopedia.nl.sg/articles/SIP_554_2004-12-23.html</a>",,4/17/2013 12:25:55 PM,,,30682.71,47E35F32F8532F90,Point,30682.71,,,30663.24,Suntec City,,,shopping
103.8600528,1.302183957,Bendahara House (Gedung Kuning),"Bendahara House (Gedung Kuning), built in the 1920s, located just outside Istana Kampong Glam.",clampToGround,30975.28,,,,"<a target=""_blank"" href=""http://infopedia.nl.sg/articles/SIP_748_2004-12-24.html"">http://infopedia.nl.sg/articles/SIP_748_2004-12-24.html</a>",,4/22/2013 3:41:48 PM,,,31614.42,7C220A02FC893E4F,Point,31614.4199,,,30975.28,Bendahara House (Gedung Kuning),,,house
103.8508222,1.283720798,Malacca Street,"Malacca Street, a one-way road in Raffles Place, connects D'Almeida Street to Market Street.",clampToGround,29948.0099,,,,"<a target=""_blank"" href=""http://infopedia.nl.sg/articles/SIP_322_2005-01-11.html"">http://infopedia.nl.sg/articles/SIP_322_2005-01-11.html</a>",,4/22/2013 3:41:48 PM,,,29572.85,2DB8C3E8A875B934,Point,29572.8499,,,29948.01,Malacca Street,,,shopping
103.8472509,1.280310189,Al Abrar Mosque,"Al-Abrar Mosque is located at 192 Telok Ayer Street, in the historic Chinatown area.",clampToGround,29550.5499,,,,"<a target=""_blank"" href=""http://infopedia.nl.sg/articles/SIP_519_2004-12-24.html"">http://infopedia.nl.sg/articles/SIP_519_2004-12-24.html</a>",,4/22/2013 3:41:48 PM,,,29195.72,C06A9F19726D2862,Point,29195.72,,,29550.55,Al Abrar Mosque,,,mosque
103.8586789,1.298498956,Clyde Terrace Market,"Built in 1872, Clyde Terrace Market was situated on Beach Road near the junction with Rochor Road.",clampToGround,30822.3799,,,,"<a target=""_blank"" href=""http://infopedia.nl.sg/articles/SIP_1012_2006-04-06.html"">http://infopedia.nl.sg/articles/SIP_1012_2006-04-06.html</a>",,4/22/2013 3:41:48 PM,,,31206.95,018227F064EE5044,Point,31206.9499,,,30822.38,Clyde Terrace Market,,,market
103.8506259,1.291997998,Coleman Street,"Coleman Street, street, part of Singapore city's original town is located in the Downtown Core section within the Central area, and stretches from Armenian Street to St. Andrews Road.",clampToGround,29926.16,,,,"<a target=""_blank"" href=""http://infopedia.nl.sg/articles/SIP_766_2004-12-14.html"">http://infopedia.nl.sg/articles/SIP_766_2004-12-14.html</a>",,4/17/2013 12:25:55 PM,,,30488.1,75AF7378D98BF2A8,Point,30488.0999,,,29926.16,Coleman Street,,,shopping
103.8470799,1.276197952,Sailors' Home,The Sailors' Home that existed in the mid-19th to early 20th century was a seamen's lodging.,clampToGround,29531.53,,,,"<a target=""_blank"" href=""http://infopedia.nl.sg/articles/SIP_1134_2006-04-07.html"">http://infopedia.nl.sg/articles/SIP_1134_2006-04-07.html</a>",,4/17/2013 12:25:55 PM,,,28741.01,5CD91B3BFDEC4131,Point,28741.0099,,,29531.53,Sailors' Home,,,naval base
103.8519839,1.295219969,CHIJmes,"Originally known as the Convent of the Holy Infant Jesus (CHIJ), a premier girls school established in 1854.",clampToGround,30077.29,,,,"<a target=""_blank"" href=""http://infopedia.nl.sg/articles/SIP_828_2004-12-15.html"">http://infopedia.nl.sg/articles/SIP_828_2004-12-15.html</a>",,4/17/2013 12:25:55 PM,,,30844.37,7B08EECCE8D2432A,Point,30844.3699,,,30077.29,CHIJmes,,,historic building
103.986099,1.348392941,Changi International Airport,"Changi International Airport, located at the eastern edge of Singapore, was officially opened on 29 December 1981.",clampToGround,45002.78,,,,"<a target=""_blank"" href=""http://infopedia.nl.sg/articles/SIP_574_2004-12-23.html"">http://infopedia.nl.sg/articles/SIP_574_2004-12-23.html</a>",,4/17/2013 12:25:55 PM,,,36724.49,D73C2EC15F062617,Point,36724.49,,,45002.78,Changi International Airport,,,airport
103.869808,1.38628899,Seletar Market,"Seletar Market and Food Centre, now demolished, was located at Block 5 Seletar Road.",clampToGround,32060.7999,,,,"<a target=""_blank"" href=""http://infopedia.nl.sg/articles/SIP_1124_2006-04-05.html"">http://infopedia.nl.sg/articles/SIP_1124_2006-04-05.html</a>",,4/17/2013 12:25:55 PM,,,40914.34,55E26D05D46265D7,Point,40914.3399,,,32060.8,Seletar Market,,,market
103.913907,1.33667994,Alkaff Kampung Melayu Mosque,Alkaff Kampung Melayu Mosque a.k.a Alkaff Mosque was officially opened on 29 July 1995 by Zulkifli Mohammed.,clampToGround,36968.6399,,,,"<a target=""_blank"" href=""http://infopedia.nl.sg/articles/SIP_621_2004-12-17.html"">http://infopedia.nl.sg/articles/SIP_621_2004-12-17.html</a>",,4/17/2013 12:25:55 PM,,,35428.94,5511DF5E9EA1C310,Point,35428.9399,,,36968.64,Alkaff Kampung Melayu Mosque,,,mosque
103.845079,1.289157963,Read Bridge,"Read Bridge, beam structured bridge, located in the Singapore River Area, located in the Central Region.",clampToGround,29308.83,,,,"<a target=""_blank"" href=""http://infopedia.nl.sg/articles/SIP_28_2004-12-24.html"">http://infopedia.nl.sg/articles/SIP_28_2004-12-24.html</a>",,4/17/2013 12:25:55 PM,,,30174.06,4C69EA588DD442F2,Point,30174.06,,,29308.83,Read Bridge,,,bridge
103.9036493,1.305425891,Red House Bakery,The Red House Bakery is a popular reference to a relict confectionery shop called Katong Bakery &amp; Confectionery.,clampToGround,35827.16,,,,"<a target=""_blank"" href=""http://infopedia.nl.sg/articles/SIP_611_2004-12-24.html"">http://infopedia.nl.sg/articles/SIP_611_2004-12-24.html</a>",,4/17/2013 12:25:55 PM,,,31972.99,679202834EA9D744,Point,31972.99,,,35827.16,Red House Bakery,,,food
103.8485459,1.296611991,Revere Bell,"The Revere Bell was presented to the Church of St Andrew in 1843 by Maria Revere Balestier, wife of Joseph Balestier, the first American Consul to Singapore.",clampToGround,29694.6699,,,,"<a target=""_blank"" href=""http://infopedia.nl.sg/articles/SIP_96_2005-01-24.html"">http://infopedia.nl.sg/articles/SIP_96_2005-01-24.html</a>",,4/17/2013 12:25:55 PM,,,30998.29,3F6312DAB1105C65,Point,30998.2899,,,29694.67,Revere Bell,,,shopping
103.854342,1.318536914,Ceylon Sports Club,"The Ceylon Sports Club (CSC) came into being in 1928, reconstituted from the Lanka Union founded by some Ceylonese students in 1920.",clampToGround,30339.7,,,,"<a target=""_blank"" href=""http://infopedia.nl.sg/articles/SIP_1518_2009-05-11.html"">http://infopedia.nl.sg/articles/SIP_1518_2009-05-11.html</a>",,4/17/2013 12:25:55 PM,,,33422.64,C640165BE2FF37D5,Point,33422.64,,,30339.7,Ceylon Sports Club,,,club
103.930726,1.326804946,Bedok Public Library,Foundation work for the Bedok Library started in September 1983 and was completed in December 1983.,clampToGround,38840.46,,,,"<a target=""_blank"" href=""http://infopedia.nl.sg/articles/SIP_695_2004-12-24.html"">http://infopedia.nl.sg/articles/SIP_695_2004-12-24.html</a>",,4/17/2013 12:25:55 PM,,,34337.08,27B383D65D44FE5E,Point,34337.08,,,38840.46,Bedok Public Library,,,library
103.848311,1.296508985,The Singapore Stone,"The Singapore Stone, sandstone slab, ancient relic, currently on exhibit at Singapore History Museum.",clampToGround,29668.5199,,,,"<a target=""_blank"" href=""http://infopedia.nl.sg/articles/SIP_43_2005-01-26.html"">http://infopedia.nl.sg/articles/SIP_43_2005-01-26.html</a>",,4/17/2013 12:25:55 PM,,,30986.9,5AB69CA9E64C0A13,Point,30986.9,,,29668.52,The Singapore Stone,,,public sculpture
103.850558,1.298077953,Maghain Aboth Synagogue,"Maghain Aboth Synagogue, which translates to Shield of our Fathers was completed in 1878.",clampToGround,29918.5899,,,,"<a target=""_blank"" href=""http://infopedia.nl.sg/articles/SIP_792_2005-01-23.html"">http://infopedia.nl.sg/articles/SIP_792_2005-01-23.html</a>",,4/17/2013 12:25:55 PM,,,31160.39,974DE0FC836803EB,Point,31160.39,,,29918.59,Maghain Aboth Synagogue,,,synagogue
103.8433049,1.284593912,Majestic Theatre,"Majestic Theatre, built in 1927, is located between People's Park Complex and Yue Hwa Department Store.",clampToGround,29111.4,,,,"<a target=""_blank"" href=""http://infopedia.nl.sg/articles/SIP_189_2004-12-24.html"">http://infopedia.nl.sg/articles/SIP_189_2004-12-24.html</a>",,4/17/2013 12:25:55 PM,,,29669.39,4415F6E1CCC6C2D5,Point,29669.39,,,29111.4,Majestic Theatre,,,theatre
103.85984,1.305096918,Malabar Mosque,"Malabar Mosque, located at the junction of Victoria Street and Jalan Sultan, was constructed in the 1960s.",clampToGround,30951.5899,,,,"<a target=""_blank"" href=""http://infopedia.nl.sg/articles/SIP_619_2004-12-27.html"">http://infopedia.nl.sg/articles/SIP_619_2004-12-27.html</a>",,4/17/2013 12:25:55 PM,,,31936.52,851D186D74B00B5A,Point,31936.5199,,,30951.59,Malabar Mosque,,,mosque
103.9012209,1.30082591,Mandalay Villa,"Mandalay Villa was built in 1902 by a prominent businessman of the Peranakan community, Lee Cheng Yan.",clampToGround,35556.9199,,,,"<a target=""_blank"" href=""http://infopedia.nl.sg/articles/SIP_371_2005-01-24.html"">http://infopedia.nl.sg/articles/SIP_371_2005-01-24.html</a>",,4/17/2013 12:25:55 PM,,,31464.34,E76FDCE58BDBEDE7,Point,31464.3399,,,35556.92,Mandalay Villa,,,villa
103.9001799,1.300510948,Chinese Swimming Club,"The Chinese Swimming Club, at Amber Road, was founded in 1905 by a group of six Chinese swimming enthusiasts.",clampToGround,35441.07,,,,"<a target=""_blank"" href=""http://infopedia.nl.sg/articles/SIP_628_2005-01-22.html"">http://infopedia.nl.sg/articles/SIP_628_2005-01-22.html</a>",,4/17/2013 12:25:55 PM,,,31429.51,7628907BF6067D87,Point,31429.5099,,,35441.07,Chinese Swimming Club,,,swimming
103.844777,1.289944943,Clarke Quay,"Clarke Quay, river embankment, part of the Singapore River area, located in the Central Region.",clampToGround,29275.2199,,,,"<a target=""_blank"" href=""http://infopedia.nl.sg/articles/SIP_863_2004-12-16.html"">http://infopedia.nl.sg/articles/SIP_863_2004-12-16.html</a>",,4/17/2013 12:25:55 PM,,,30261.08,9CF946D55E3627D3,Point,30261.08,,,29275.22,Clarke Quay,,,district
103.847191,1.369978933,Ang Mo Kio,Ang Mo Kio is located within the north-eastern region.,clampToGround,29543.83,,,,"<a target=""_blank"" href=""http://infopedia.nl.sg/articles/SIP_230_2005-01-25.html"">http://infopedia.nl.sg/articles/SIP_230_2005-01-25.html</a>",,4/17/2013 12:25:55 PM,,,39110.83,E6B6FB0C5AD7269F,Point,39110.83,,,29543.83,Ang Mo Kio,,,district
103.847545,1.28112294,Thian Hock Keng Temple,"Thian Hock Keng, at 158 Telok Ayer Street, is Singapore?s oldest Chinese temple and is recognised as the most important temple of the local Hokkien community.",clampToGround,29583.28,,,,"<a target=""_blank"" href=""http://infopedia.nl.sg/articles/SIP_793_2005-01-10.html"">http://infopedia.nl.sg/articles/SIP_793_2005-01-10.html</a>",,4/17/2013 12:25:55 PM,,,29285.59,6D8DD7BF51529A2B,Point,29285.5899,,,29583.28,Thian Hock Keng Temple,,,temple
103.9097969,1.304866994,Marine Parade Public Library,"Opened on 10 November 1978, was the third full-time library built by the National Library.",clampToGround,36511.3399,,,,"<a target=""_blank"" href=""http://infopedia.nl.sg/articles/SIP_878_2004-12-27.html"">http://infopedia.nl.sg/articles/SIP_878_2004-12-27.html</a>",,4/17/2013 12:25:55 PM,,,31911.21,9FEDFBDA9AFE4A89,Point,31911.21,,,36511.34,Marine Parade Public Library,,,library
103.854236,1.297576997,Reference Point,Reference Point is a remote and electronic reference service provided by the Lee Kong Chian Reference LIbrary.,clampToGround,30327.9199,,,,"<a target=""_blank"" href=""http://infopedia.nl.sg/articles/SIP_257_2004-12-24.html"">http://infopedia.nl.sg/articles/SIP_257_2004-12-24.html</a>",,4/17/2013 12:25:55 PM,,,31105,E211613C2BF488FA,Point,31105,,,30327.92,Reference Point,,,shopping
103.861945,1.317212939,Bendemeer House,"Bendemeer House or House of Whampoa,was a significant mansion designed and built in 1840",clampToGround,31185.8399,,,,"<a target=""_blank"" href=""http://infopedia.nl.sg/articles/SIP_759_2005-01-11.html"">http://infopedia.nl.sg/articles/SIP_759_2005-01-11.html</a>",,4/17/2013 12:25:55 PM,,,33276.25,CDABB90D0B21E518,Point,33276.25,,,31185.84,Bendemeer House,,,house
103.8121009,1.348656953,The Syonan Shinto Shrine (Syonan Jinja),"The Syonan (Shonan) Shinto Shrine or Syonan Jinja, was built by British prisoners-of-war and the Japanese Army.",clampToGround,25638.71,,,,"<a target=""_blank"" href=""http://infopedia.nl.sg/articles/SIP_236_2004-12-24.html"">http://infopedia.nl.sg/articles/SIP_236_2004-12-24.html</a>",,4/17/2013 12:25:55 PM,,,36753.16,52B289BE91F12624,Point,36753.16,,,25638.71,The Syonan Shinto Shrine (Syonan Jinja),,,shrine
103.849328,1.288414914,Boat Quay,"Boat Quay, a river embankment on the Singapore River, is one of the oldest and most historical areas in the Central Region.",clampToGround,29781.71,,,,"<a target=""_blank"" href=""http://infopedia.nl.sg/articles/SIP_224_2004-12-20.html"">http://infopedia.nl.sg/articles/SIP_224_2004-12-20.html</a>",,4/17/2013 12:25:55 PM,,,30091.9,7DB70B0B22A5BB8A,Point,30091.9,,,29781.71,Boat Quay,,,river
103.852567,1.29550692,Bras Basah Road,The road was first mentioned in a G. D. Coleman map dated 1835 as Brass Bassa.,clampToGround,30142.1799,,,,"<a target=""_blank"" href=""http://infopedia.nl.sg/articles/SIP_227_2005-01-25.html"">http://infopedia.nl.sg/articles/SIP_227_2005-01-25.html</a>",,4/17/2013 12:25:55 PM,,,30876.1,46CD3673AD3EDEA1,Point,30876.0999,,,30142.18,Bras Basah Road,,,district
103.9914311,1.408477694,Chek Jawa,"Chek Jawa, a biological treasure discovered only in December 2000, is located off the eastern coast of Pulau Ubin.",clampToGround,45595.74,,,,"<a target=""_blank"" href=""http://infopedia.nl.sg/articles/SIP_256_2005-01-03.html"">http://infopedia.nl.sg/articles/SIP_256_2005-01-03.html</a>",,4/17/2013 3:53:48 PM,,,43368.42,C6FD7A9500E54294,Point,43368.4199,,,45595.74,Chek Jawa,,,shopping
103.7722188,1.312107666,Clementi Road,Stretched from West Coast Road/Pasir Panjang Road at Pasir Panjang Village to Bukit Timah Circus.,clampToGround,21200.1699,,,,"<a target=""_blank"" href=""http://infopedia.nl.sg/articles/SIP_176_2005-01-25.html"">http://infopedia.nl.sg/articles/SIP_176_2005-01-25.html</a>",,4/17/2013 3:53:48 PM,,,32711.8,75162156410C4B0C,Point,32711.8,,,21200.17,Clementi Road,,,district
103.849261,1.279576104,Robinson Road,"In exchange for land at Mount Palmer (now Tanjong Pagar) to build a defence battery, the government built Robinson Road, stretching from Collyer Quay to the docks.",clampToGround,29774.2599,,,,"<a target=""_blank"" href=""http://infopedia.nl.sg/articles/SIP_179_2005-01-19.html"">http://infopedia.nl.sg/articles/SIP_179_2005-01-19.html</a>",,4/17/2013 3:53:48 PM,,,29114.55,B5EC30AE677FDF02,Point,29114.55,,,29774.26,Robinson Road,,,district
103.8468361,1.284912956,South Bridge Road,"A major road of Chinatown, was known in the early 1820s by its name, long before a proper road was constructed.",clampToGround,29504.3899,,,,"<a target=""_blank"" href=""http://infopedia.nl.sg/articles/SIP_911_2005-01-19.html"">http://infopedia.nl.sg/articles/SIP_911_2005-01-19.html</a>",,4/17/2013 3:53:48 PM,,,29704.67,D2694C4A3FE71581,Point,29704.6699,,,29504.39,South Bridge Road,,,district
103.852188,1.292382975,St. Andrew's Cathedral,"St Andrew's Cathedral, at 11 St Andrew's Road, is an Anglican cathedral located next to the City Hall MRT station.",clampToGround,30100,,,,"<a target=""_blank"" href=""http://infopedia.nl.sg/articles/SIP_25_2005-01-17.html"">http://infopedia.nl.sg/articles/SIP_25_2005-01-17.html</a>",,4/17/2013 12:25:55 PM,,,30530.67,442D3CCA8EF21492,Point,30530.6699,,,30100,St. Andrew's Cathedral,,,church
103.886898,1.298267991,Katong Park Hotel,"Katong Park Hotel, now closed, was one of Singapore's oldest hotel.",clampToGround,33962.91,,,,"<a target=""_blank"" href=""http://infopedia.nl.sg/articles/SIP_646_2005-01-22.html"">http://infopedia.nl.sg/articles/SIP_646_2005-01-22.html</a>",,4/17/2013 12:25:55 PM,,,31181.46,849C6FA4C77E62CE,Point,31181.46,,,33962.91,Katong Park Hotel,,,hotel
103.8513039,1.297782944,Church of Saints Peter and Paul,The Church of Saints Peter &amp; Paul is located at 225A Queen Street.,clampToGround,30001.61,,,,"<a target=""_blank"" href=""http://infopedia.nl.sg/articles/SIP_280_2004-12-15.html"">http://infopedia.nl.sg/articles/SIP_280_2004-12-15.html</a>",,4/17/2013 12:25:55 PM,,,31127.77,C27F8C9B6224E426,Point,31127.7699,,,30001.61,Church of Saints Peter and Paul,,,church
103.9069247,1.306807665,Church of the Holy Family,"The Church of the Holy Family, on Chapel Road in Katong, was built in 1932.",clampToGround,36191.6799,,,,"<a target=""_blank"" href=""http://infopedia.nl.sg/articles/SIP_610_2004-12-15.html"">http://infopedia.nl.sg/articles/SIP_610_2004-12-15.html</a>",,4/17/2013 12:25:55 PM,,,32125.79,E5499CCE0F1874EA,Point,32125.7899,,,36191.68,Church of the Holy Family,,,church
103.85187,1.29046699,City Hall,City Hall at St Andrew's Road was originally known as the Municipal Building when it was completed in 1929.,clampToGround,30064.61,,,,"<a target=""_blank"" href=""http://infopedia.nl.sg/articles/SIP_849_2004-12-17.html"">http://infopedia.nl.sg/articles/SIP_849_2004-12-17.html</a>",,4/17/2013 12:25:55 PM,,,30318.81,C1C67035C200FF55,Point,30318.81,,,30064.61,City Hall,,,district
103.802638,1.264887998,Labrador Park/Fort Pasir Panjang,"Former defence battery, nature park and designated reserve area, in the Bukit Merah area.",clampToGround,24585.48,,,,"<a target=""_blank"" href=""http://infopedia.nl.sg/articles/SIP_14_2005-01-25.html"">http://infopedia.nl.sg/articles/SIP_14_2005-01-25.html</a>",,4/17/2013 12:25:55 PM,,,27490.43,4A01A9D8F79BD48F,Point,27490.4299,,,24585.48,Labrador Park/Fort Pasir Panjang,,,district
103.8493837,1.2930969,Armenian Church,The Armenian Apostolic Church of St Gregory the Illuminator is located at 60 Hill Street.,clampToGround,29787.91,,,,"<a target=""_blank"" href=""http://infopedia.nl.sg/articles/SIP_809_2004-12-23.html"">http://infopedia.nl.sg/articles/SIP_809_2004-12-23.html</a>",,4/17/2013 3:53:48 PM,,,30609.61,C25740F9A5C57B54,Point,30609.6099,,,29787.91,Armenian Church,,,church
103.8493144,1.294113136,Armenian Street,Armenian Street begins at the junction of Coleman Street and Stamford Road and ends at the point where Canning Rise and Coleman Street meet.,clampToGround,29780.2,,,,"<a target=""_blank"" href=""http://infopedia.nl.sg/articles/SIP_284_2004-12-23.html"">http://infopedia.nl.sg/articles/SIP_284_2004-12-23.html</a>",,4/17/2013 3:53:48 PM,,,30721.98,949F3E5ACDAA15C8,Point,30721.98,,,29780.2,Armenian Street,,,shopping
103.9002685,1.342749539,Paya Lebar Airport,Paya Lebar Airport opened on 20 August 1955.,clampToGround,35450.7999,,,,"<a target=""_blank"" href=""http://infopedia.nl.sg/articles/SIP_130_2005-01-22.html"">http://infopedia.nl.sg/articles/SIP_130_2005-01-22.html</a>",,4/22/2013 3:41:48 PM,,,36100.04,111ED0345D1C00CA,Point,36100.0399,,,35450.8,Paya Lebar Airport,,,airport
103.7989079,1.295493826,Church of the Blessed Sacrament,"Opened in 1965, it serves the Catholic community in the Queenstown area. The church building was awarded conservation status by the Urban Redevelopment Authority in 2005",clampToGround,24170.3899,,,,"<a target=""_blank"" href=""http://infopedia.nl.sg/articles/SIP_1080_2010-08-04.html"">http://infopedia.nl.sg/articles/SIP_1080_2010-08-04.html</a>",,4/22/2013 3:41:48 PM,,,30874.67,879992F288A18E44,Point,30874.6699,,,24170.39,Church of the Blessed Sacrament,,,church
103.8547067,1.292896001,Civilian War Memorial,Is a monument dedicated to civilians who perished during the Japanese Occupation of Singapore (1942-1945).,clampToGround,30380.3099,,,,"<a target=""_blank"" href=""http://infopedia.nl.sg/articles/SIP_516_2004-12-23.html"">http://infopedia.nl.sg/articles/SIP_516_2004-12-23.html</a>",,4/22/2013 3:41:48 PM,,,30587.4,34D76CA09B34227B,Point,30587.4,,,30380.31,Civilian War Memorial,,,historic landmark
103.839645,1.301594988,Robinsons Department Store,"Robinsons Department Store, is located at Centrepoint in Orchard Road.",clampToGround,28704.07,,,,"<a target=""_blank"" href=""http://infopedia.nl.sg/articles/SIP_561_2005-01-25.html"">http://infopedia.nl.sg/articles/SIP_561_2005-01-25.html</a>",,4/17/2013 12:25:55 PM,,,31549.28,7F0455C75EA3FA69,Point,31549.2799,,,28704.07,Robinsons Department Store,,,shopping
103.8598696,1.313271922,Jalan Besar,"Initially a betel nut and nipah orchard, it was bought over by the Norris brothers.",clampToGround,30954.87,,,,"<a target=""_blank"" href=""http://infopedia.nl.sg/articles/SIP_585_2005-01-13.html"">http://infopedia.nl.sg/articles/SIP_585_2005-01-13.html</a>",,4/22/2013 3:41:48 PM,,,32840.47,305DB7C45FD3D325,Point,32840.47,,,30954.87,Jalan Besar,,,district
103.8344706,1.308902354,Goodwood Park Hotel,"The Goodwood Park Hotel is a luxury heritage hotel located at 22 Scotts Road, off Orchard Road.",clampToGround,28128.21,,,,"<a target=""_blank"" href=""http://infopedia.nl.sg/articles/SIP_767_2004-12-15.html"">http://infopedia.nl.sg/articles/SIP_767_2004-12-15.html</a>",,4/22/2013 3:41:48 PM,,,32357.29,CB191F6067A49186,Point,32357.2899,,,28128.21,Goodwood Park Hotel,,,hotel
103.8162532,1.323206179,Dunearn Road,Dunearn Road starts at the junction of Clementi Road and Jalan Anak Bukit.,clampToGround,26100.79,,,,"<a target=""_blank"" href=""http://infopedia.nl.sg/articles/SIP_294_2005-01-26.html"">http://infopedia.nl.sg/articles/SIP_294_2005-01-26.html</a>",,4/22/2013 3:41:48 PM,,,33938.94,4F33CCE8FB07E640,Point,33938.9399,,,26100.79,Dunearn Road,,,district
103.8574977,1.32538591,Whampoa Branch Library (Part-time),Whampoa Branch Library (Part-time) (30 September 1981 - 30 July 1987) was the eighth part-time branch library of the National Library Board.,clampToGround,30690.8899,,,,"<a target=""_blank"" href=""http://infopedia.nl.sg/articles/SIP_903_2005-01-22.html"">http://infopedia.nl.sg/articles/SIP_903_2005-01-22.html</a>",,4/22/2013 3:41:48 PM,,,34179.97,81D5CB6B81C3856A,Point,34179.97,,,30690.89,Whampoa Branch Library (Part-time),,,library
103.7824304,1.283641488,Tiger Balm Gardens,The Tiger Balm Gardens a.k.a. Haw Par Villa is an oriental theme park located off Pasir Panjang Road.,clampToGround,22336.5599,,,,"<a target=""_blank"" href=""http://infopedia.nl.sg/articles/SIP_560_2004-12-14.html"">http://infopedia.nl.sg/articles/SIP_560_2004-12-14.html</a>",,4/22/2013 3:41:48 PM,,,29564.13,57EAB307BE5ECED6,Point,29564.13,,,22336.56,Tiger Balm Gardens,,,garden
103.8872642,1.363132328,Upper Serangoon Branch Library (Part-time),Upper Serangoon Branch Library (Part-time) (29 December 1953 - June 1960) was the first Branch of the Raffles Library.,clampToGround,34003.5099,,,,"<a target=""_blank"" href=""http://infopedia.nl.sg/articles/SIP_912_2005-01-24.html"">http://infopedia.nl.sg/articles/SIP_912_2005-01-24.html</a>",,4/22/2013 3:41:48 PM,,,38353.83,ACA7B69831D051A6,Point,38353.83,,,34003.51,Upper Serangoon Branch Library (Part-time),,,library
103.8540437,1.295761215,Raffles Hotel,Raffles Hotel is a Singapore landmark located at 1 Beach Road.,clampToGround,30306.5199,,,,"<a target=""_blank"" href=""http://infopedia.nl.sg/articles/SIP_37_2005-01-05.html"">http://infopedia.nl.sg/articles/SIP_37_2005-01-05.html</a>",,4/22/2013 3:41:48 PM,,,30904.22,83A016AB51DDDF57,Point,30904.22,,,30306.52,Raffles Hotel,,,hotel
103.826001,1.435040357,Sembawang Road,"Sembawang Road, a two-way road, begins from the junction of Mandai Road and Upper Thomson Road.",clampToGround,27185.6699,,,,"<a target=""_blank"" href=""http://infopedia.nl.sg/articles/SIP_361_2004-12-24.html"">http://infopedia.nl.sg/articles/SIP_361_2004-12-24.html</a>",,4/22/2013 3:41:48 PM,,,46304.99,827A2F42AA8F5893,Point,46304.99,,,27185.67,Sembawang Road,,,district
103.794088,1.303371946,Tanglin Estate,"Tanglin's hilly terrain includes Leonie, Cluny, Goverment Hill, Institution Hill, Cairnhill, Emerald Hill, Mt. Elizabeth, Claymore Hill, Lady Hill, Nassim Hill, Fort Canning Hill and Goodwood Hill.",clampToGround,23633.99,,,,"<a target=""_blank"" href=""http://infopedia.nl.sg/articles/SIP_178_2004-12-31.html"">http://infopedia.nl.sg/articles/SIP_178_2004-12-31.html</a>",,4/17/2013 12:25:55 PM,,,31745.8,F18CC209C22FB8BC,Point,31745.8,,,23633.99,Tanglin Estate,,,houses
103.8957339,1.307313961,Tanjong Katong,The old Tanjong Katong was the coastal stretch from Upper East Coast Road to Tanjong Rhu.,clampToGround,34946.25,,,,"<a target=""_blank"" href=""http://infopedia.nl.sg/articles/SIP_829_2005-01-18.html"">http://infopedia.nl.sg/articles/SIP_829_2005-01-18.html</a>",,4/17/2013 12:25:55 PM,,,32181.74,3014A6CCB2A60154,Point,32181.74,,,34946.25,Tanjong Katong,,,district
103.8430079,1.275608957,Tanjong Pagar,"Tanjong Pagar (original name Salintar or Selintar), street, is located in the Central Region.",clampToGround,29078.3499,,,,"<a target=""_blank"" href=""http://infopedia.nl.sg/articles/SIP_732_2005-01-26.html"">http://infopedia.nl.sg/articles/SIP_732_2005-01-26.html</a>",,4/17/2013 12:25:55 PM,,,28675.88,E51D4D271BA0896F,Point,28675.88,,,29078.35,Tanjong Pagar,,,district
103.851663,1.293545992,Capitol Theatre,"Capitol Theatre, later known as Capitol Cinema, is of neo-classical architecture.",clampToGround,30041.57,,,,"<a target=""_blank"" href=""http://infopedia.nl.sg/articles/SIP_630_2004-12-15.html"">http://infopedia.nl.sg/articles/SIP_630_2004-12-15.html</a>",,4/17/2013 12:25:55 PM,,,30659.27,07D33BAA0936F79C,Point,30659.2699,,,30041.57,Capitol Theatre,,,theatre
103.8511739,1.288614947,The Old Parliament House (The Arts House),The Old Parliament House at Empress Place was where the Singapore Parliament used to sit.,clampToGround,29987.15,,,,"<a target=""_blank"" href=""http://infopedia.nl.sg/articles/SIP_836_2005-01-06.html"">http://infopedia.nl.sg/articles/SIP_836_2005-01-06.html</a>",,4/17/2013 12:25:55 PM,,,30114.02,87FA1C9736F11B3D,Point,30114.0199,,,29987.15,The Old Parliament House (The Arts House),,,theatre
103.849481,1.31080192,The old racecourse (Farrer Park),"The old racecourse at Farrer Park, or the Serangoon Road Race Course, was built in 1842.Â¿",clampToGround,29798.7199,,,,"<a target=""_blank"" href=""http://infopedia.nl.sg/articles/SIP_1111_2007-07-19.html"">http://infopedia.nl.sg/articles/SIP_1111_2007-07-19.html</a>",,4/17/2013 12:25:55 PM,,,32567.34,45D9504CB30FC6B5,Point,32567.3399,,,29798.72,The old racecourse (Farrer Park),,,racing
103.8347809,1.277815988,Singapore General Hospital,"It was called the General Hospital, the predecessor to the Singapore General Hospital in Outram Road.",clampToGround,28162.75,,,,"<a target=""_blank"" href=""http://infopedia.nl.sg/articles/SIP_634_2005-01-10.html"">http://infopedia.nl.sg/articles/SIP_634_2005-01-10.html</a>",,4/17/2013 12:25:55 PM,,,28919.92,1893679CD9DF648C,Point,28919.9199,,,28162.75,Singapore General Hospital,,,hospital
103.848513,1.296639936,The Singapore Institution Library (1823-1843),The Singapore Institution Library grew out of Sir Stamford Raffles vision for an educated Singapore.,clampToGround,29691,,,,"<a target=""_blank"" href=""http://infopedia.nl.sg/articles/SIP_696_2005-01-19.html"">http://infopedia.nl.sg/articles/SIP_696_2005-01-19.html</a>",,4/17/2013 12:25:55 PM,,,31001.38,7DEA1E2301BCA8CE,Point,31001.38,,,29691,The Singapore Institution Library (1823-1843),,,library
103.9433366,1.321631911,Siglap Branch Library (Part-time),Siglap Branch Library (Part-time) (1 July 1954 - March 1981) was the second Branch of the Raffles Library.,clampToGround,40243.9199,,,,"<a target=""_blank"" href=""http://infopedia.nl.sg/articles/SIP_894_2005-01-19.html"">http://infopedia.nl.sg/articles/SIP_894_2005-01-19.html</a>",,4/17/2013 12:25:55 PM,,,33765.13,60171FA417E90EF4,Point,33765.13,,,40243.92,Siglap Branch Library (Part-time),,,library
103.855913,1.313112974,Sri Srinivasa Perumal Temple,Sri Srinivasa Perumal Temple is located at 397 Serangoon Road.,clampToGround,30514.54,,,,"<a target=""_blank"" href=""http://infopedia.nl.sg/articles/SIP_606_2005-01-24.html"">http://infopedia.nl.sg/articles/SIP_606_2005-01-24.html</a>",,4/17/2013 12:25:55 PM,,,32822.89,8AD89840FF8C15EF,Point,32822.89,,,30514.54,Sri Srinivasa Perumal Temple,,,temple
103.930022,1.310804977,St. Andrew's Mission Hospital,"St. Andrew's Mission Hospital, one of Singapore's first maternity and paediatric centres, started off as a clinic in a shophouse at Bencoolen Street in October 1913.",clampToGround,38762.1799,,,,"<a target=""_blank"" href=""http://infopedia.nl.sg/articles/SIP_374_2005-01-27.html"">http://infopedia.nl.sg/articles/SIP_374_2005-01-27.html</a>",,4/17/2013 12:25:55 PM,,,32567.88,1E80DD82AF0A12D5,Point,32567.88,,,38762.18,St. Andrew's Mission Hospital,,,hospital
103.769134,1.452570994,Singapore-Johore Causeway,"Singapore-Johor Bahru Causeway, a 1,056 m long (3,465 ft) cross-country link over the Strait of Johor.",clampToGround,20857.28,,,,"<a target=""_blank"" href=""http://infopedia.nl.sg/articles/SIP_99_2004-12-30.html"">http://infopedia.nl.sg/articles/SIP_99_2004-12-30.html</a>",,4/17/2013 12:25:55 PM,,,48243.54,B23083450406E481,Point,48243.5399,,,20857.28,Singapore-Johore Causeway,,,bridge
103.843868,1.282514956,Smith Street,"In the early days, Smith Street was popularly referred to as hei yuen kai or theatre street.",clampToGround,29174.0599,,,,"<a target=""_blank"" href=""http://infopedia.nl.sg/articles/SIP_681_2005-01-25.html"">http://infopedia.nl.sg/articles/SIP_681_2005-01-25.html</a>",,4/17/2013 12:25:55 PM,,,29439.51,BC063D0050B86221,Point,29439.5099,,,29174.06,Smith Street,,,shopping
103.8527359,1.301772629,Bencoolen Street,"Bengkulu, on the coast of West Sumatra was renamed Bencoolen by the British.",clampToGround,30160.9699,,,,"<a target=""_blank"" href=""http://infopedia.nl.sg/articles/SIP_174_2005-01-25.html"">http://infopedia.nl.sg/articles/SIP_174_2005-01-25.html</a>",,4/17/2013 3:53:48 PM,,,31568.93,450C55613070BFC2,Point,31568.9299,,,30160.97,Bencoolen Street,,,shopping
103.8455218,1.274601122,Anson Road,"Anson Road is named after Major General Sir Archibald E.H. Anson, a colonial official.",clampToGround,29358.12,,,,"<a target=""_blank"" href=""http://infopedia.nl.sg/articles/SIP_348_2004-12-17.html"">http://infopedia.nl.sg/articles/SIP_348_2004-12-17.html</a>",,4/17/2013 3:53:48 PM,,,28564.44,B1D9F464E51CF4FC,Point,28564.4399,,,29358.12,Anson Road,,,district
103.8483687,1.279048051,McCallum Street,"McCallum Street is named after Major Sir Henry Edward McCallum (b. 28 October 1852, d. 24 November 1919).",clampToGround,29674.96,,,,"<a target=""_blank"" href=""http://infopedia.nl.sg/articles/SIP_979_2005-09-02.html"">http://infopedia.nl.sg/articles/SIP_979_2005-09-02.html</a>",,4/17/2013 3:53:48 PM,,,29056.16,B8F8F3CDE1B15277,Point,29056.16,,,29674.96,McCallum Street,,,shopping
103.8478139,1.287301921,Hongkong Street,Hongkong Street is a one-way road leading from South Bridge Road to New Bridge Road.,clampToGround,29613.21,,,,"<a target=""_blank"" href=""http://infopedia.nl.sg/articles/SIP_317_2005-01-11.html"">http://infopedia.nl.sg/articles/SIP_317_2005-01-11.html</a>",,4/17/2013 12:25:55 PM,,,29968.83,616EF7B6E59CC56D,Point,29968.83,,,29613.21,Hongkong Street,,,shopping
103.8453269,1.283159943,Jamae Mosque,"Jamae Mosque is located at 218 South Bridge Road, on the corner with Mosque Road in the historic Chinatown area.",clampToGround,29336.4299,,,,"<a target=""_blank"" href=""http://infopedia.nl.sg/articles/SIP_520_2004-12-16.html"">http://infopedia.nl.sg/articles/SIP_520_2004-12-16.html</a>",,4/17/2013 12:25:55 PM,,,29510.83,2E361620A47C9201,Point,29510.83,,,29336.43,Jamae Mosque,,,mosque
103.9004589,1.310927949,Onan Road,Onan Road begins around East Coast Road although the road is not directly connected to it.,clampToGround,35472.0899,,,,"<a target=""_blank"" href=""http://infopedia.nl.sg/articles/SIP_629_2005-01-25.html"">http://infopedia.nl.sg/articles/SIP_629_2005-01-25.html</a>",,4/17/2013 12:25:55 PM,,,32581.37,EF0F6789CD2C6B24,Point,32581.3699,,,35472.09,Onan Road,,,district
103.8588269,1.300469927,Ophir Road,"Ophir Road is named after Mount Opher, a hill situated in Muar, West Johor, Malaysia.",clampToGround,30838.8499,,,,"<a target=""_blank"" href=""http://infopedia.nl.sg/articles/SIP_272_2005-01-25.html"">http://infopedia.nl.sg/articles/SIP_272_2005-01-25.html</a>",,4/17/2013 12:25:55 PM,,,31424.89,9D17439C1E2F9AFA,Point,31424.89,,,30838.85,Ophir Road,,,district
103.847452,1.297771935,Orchard Road Presbyterian Church,"The Orchard Road Presbyterian Church, a.k.a. Greja Kechil and the Scots Church, is the earliest Presbyterian church in Singapore.",clampToGround,29572.9199,,,,"<a target=""_blank"" href=""http://infopedia.nl.sg/articles/SIP_819_2004-12-27.html"">http://infopedia.nl.sg/articles/SIP_819_2004-12-27.html</a>",,4/17/2013 12:25:55 PM,,,31126.55,530D080FF6377D53,Point,31126.55,,,29572.92,Orchard Road Presbyterian Church,,,church
103.873696,1.349827951,Serangoon,Serangoon is an estate located within the north-east region.,clampToGround,32493.5499,,,,"<a target=""_blank"" href=""http://infopedia.nl.sg/articles/SIP_213_2004-12-24.html"">http://infopedia.nl.sg/articles/SIP_213_2004-12-24.html</a>",,4/17/2013 12:25:55 PM,,,36882.67,E276B5CB47EF07A0,Point,36882.6699,,,32493.55,Serangoon,,,district
103.8577369,1.304593932,Madrasah Aljunied al-Islamiah,"Madrasah Aljunied al-Islamiah, located at 30 Victoria Lane, is Singapore's premier Islamic institution of learning.",clampToGround,30717.54,,,,"<a target=""_blank"" href=""http://infopedia.nl.sg/articles/SIP_436_2005-02-02.html"">http://infopedia.nl.sg/articles/SIP_436_2005-02-02.html</a>",,4/17/2013 12:25:55 PM,,,31880.9,59963888E59D4121,Point,31880.9,,,30717.54,Madrasah Aljunied al-Islamiah,,,building
103.7300679,1.338796923,The Chinese Garden (Yu Hwa Yuan),Built in 1975 as part of Jurong Town Corporation (JTC)'s plan to bring greenery to the industrial landscape of Jurong.,clampToGround,16509.2999,,,,"<a target=""_blank"" href=""http://infopedia.nl.sg/articles/SIP_421_2005-01-03.html"">http://infopedia.nl.sg/articles/SIP_421_2005-01-03.html</a>",,4/17/2013 12:25:55 PM,,,35663.12,4A828D35FCD66417,Point,35663.1199,,,16509.3,The Chinese Garden (Yu Hwa Yuan),,,garden
103.842525,1.277604983,Craig Road,Craig Road begins from the junction of Neil Road and Keong Saik Road and ends at Tanjong Pagar Road.,clampToGround,29024.5999,,,,"<a target=""_blank"" href=""http://infopedia.nl.sg/articles/SIP_306_2004-12-15.html"">http://infopedia.nl.sg/articles/SIP_306_2004-12-15.html</a>",,4/17/2013 12:25:55 PM,,,28896.59,863B8B33A381E4BA,Point,28896.5899,,,29024.6,Craig Road,,,district
103.844086,1.288713924,Merchant Road,Merchant Road connects New Bridge Road and Clemenceau Avenue.,clampToGround,29198.32,,,,"<a target=""_blank"" href=""http://infopedia.nl.sg/articles/SIP_318_2005-01-11.html"">http://infopedia.nl.sg/articles/SIP_318_2005-01-11.html</a>",,4/17/2013 12:25:55 PM,,,30124.96,1B59D15F040B5B96,Point,30124.96,,,29198.32,Merchant Road,,,district
103.842071,1.281155974,Kreta Ayer Road,"Kreta Ayer Road, a one-way road in the heart of Chinatown, connects Neil Road to New Bridge Road.",clampToGround,28974.07,,,,"<a target=""_blank"" href=""http://infopedia.nl.sg/articles/SIP_325_2004-12-17.html"">http://infopedia.nl.sg/articles/SIP_325_2004-12-17.html</a>",,4/17/2013 12:25:55 PM,,,29289.24,8FC4D5F8CA69B64D,Point,29289.24,,,28974.07,Kreta Ayer Road,,,district
103.878847,1.33121098,Macpherson Road,The road was named after Lieutenant Colonel Ronald Macpherson (b. 14 June 1817 - d. 6 December 1869).,clampToGround,33066.8399,,,,"<a target=""_blank"" href=""http://infopedia.nl.sg/articles/SIP_769_2005-01-20.html"">http://infopedia.nl.sg/articles/SIP_769_2005-01-20.html</a>",,4/17/2013 12:25:55 PM,,,34824.11,2988625CD7BCD767,Point,34824.1099,,,33066.84,Macpherson Road,,,district
103.8309189,1.289537913,Kim Seng Constituency,"Kim Seng Constituency, estate, in the Bukit Merah area, located within the Central Region.",clampToGround,27732.94,,,,"<a target=""_blank"" href=""http://infopedia.nl.sg/articles/SIP_212_2005-01-25.html"">http://infopedia.nl.sg/articles/SIP_212_2005-01-25.html</a>",,4/17/2013 12:25:55 PM,,,30216.07,FC9ECD21207004F2,Point,30216.07,,,27732.94,Kim Seng Constituency,,,building
103.747371,1.397577952,Yew Tee MRT station,"Yew Tee MRT station, is located in north-west Singapore, between the Choa Chu Kang and the Kranji MRT Stations, on the North-South line.",clampToGround,18435.1799,,,,"<a target=""_blank"" href=""http://infopedia.nl.sg/articles/SIP_367_2005-01-18.html"">http://infopedia.nl.sg/articles/SIP_367_2005-01-18.html</a>",,4/17/2013 12:25:55 PM,,,42162.76,0D095525A4EE6ACA,Point,42162.7599,,,18435.18,Yew Tee MRT station,,,district
103.8559149,1.339475923,First satellite self-dialysis centre,"Officially opened on 24 December 1987 by the late President Ong Teng Cheong, then the Second Deputy Prime Minister.",clampToGround,30514.73,,,,"<a target=""_blank"" href=""http://infopedia.nl.sg/articles/SIP_475_2005-01-07.html"">http://infopedia.nl.sg/articles/SIP_475_2005-01-07.html</a>",,4/17/2013 12:25:55 PM,,,35737.97,DBE7D2964C7DF4B2,Point,35737.97,,,30514.73,First satellite self-dialysis centre,,,healthcare
103.841655,1.286733917,Pearl's Hill,"Pearl's Hill a.k.a. Mount Stamford hill, located in the Central Region of Singapore and at 56.4 ha, is the largest sub-zone of the Outram area.",clampToGround,28927.7699,,,,"<a target=""_blank"" href=""http://infopedia.nl.sg/articles/SIP_116_2004-12-14.html"">http://infopedia.nl.sg/articles/SIP_116_2004-12-14.html</a>",,4/17/2013 12:25:55 PM,,,29906.02,F64BBF9B8CF629A5,Point,29906.0199,,,28927.77,Pearl's Hill,,,hill
103.8525979,1.286959949,Mouth of the Singapore River,The entrance to the river was originally about where the back of Fullerton Building now stands.,clampToGround,30145.6299,,,,"<a target=""_blank"" href=""http://infopedia.nl.sg/articles/SIP_929_2004-12-16.html"">http://infopedia.nl.sg/articles/SIP_929_2004-12-16.html</a>",,4/17/2013 12:25:55 PM,,,29931.02,5E23A0B14F353E69,Point,29931.0199,,,30145.63,Mouth of the Singapore River,,,river
103.8441389,1.294110993,Clemenceau Avenue,The original Clemenceau Avenue stretched between Newton Circus to the southern bank of the Singapore River.,clampToGround,29204.21,,,,"<a target=""_blank"" href=""http://infopedia.nl.sg/articles/SIP_803_2004-12-16.html"">http://infopedia.nl.sg/articles/SIP_803_2004-12-16.html</a>",,4/17/2013 12:25:55 PM,,,30721.74,27108E7620DB25CE,Point,30721.74,,,29204.21,Clemenceau Avenue,,,shopping
103.847972,1.289725979,Coleman Bridge,"Located in the Central Region of the Singapore River area, Coleman Bridge links Hill Street with New Bridge Road.",clampToGround,29630.7999,,,,"<a target=""_blank"" href=""http://infopedia.nl.sg/articles/SIP_151_2004-12-16.html"">http://infopedia.nl.sg/articles/SIP_151_2004-12-16.html</a>",,4/17/2013 12:25:55 PM,,,30236.87,A4E309063572C610,Point,30236.8699,,,29630.8,Coleman Bridge,,,bridge
103.839374,1.306583917,Cairnhill,"In 1848, Charles Carnie owned a 4,370 tree nutmeg plantation on a hill (34 m above sea level) in the Orchard Road area which he named Carnie's Hill.",clampToGround,28673.91,,,,"<a target=""_blank"" href=""http://infopedia.nl.sg/articles/SIP_725_2004-12-17.html"">http://infopedia.nl.sg/articles/SIP_725_2004-12-17.html</a>",,4/17/2013 12:25:55 PM,,,32100.93,380674433CAA3C76,Point,32100.9299,,,28673.91,Cairnhill,,,district
103.846735,1.289108938,Ellenborough Street,"Ellenborough Street was laid in 1845 and named after Lord Ellenborough, Governor-General of India, by Straits Settlements Governor Colonel William Butterworth.",clampToGround,29493.1299,,,,"<a target=""_blank"" href=""http://infopedia.nl.sg/articles/SIP_941_2005-01-19.html"">http://infopedia.nl.sg/articles/SIP_941_2005-01-19.html</a>",,4/17/2013 12:25:55 PM,,,30168.64,86500351A31AA519,Point,30168.64,,,29493.13,Ellenborough Street,,,shopping
103.8521789,1.296613956,Singapore Management University,"The first privately managed university in Singapore, specialising in business and finance.",clampToGround,30098.99,,,,"<a target=""_blank"" href=""http://infopedia.nl.sg/articles/SIP_500_2005-01-19.html"">http://infopedia.nl.sg/articles/SIP_500_2005-01-19.html</a>",,4/17/2013 12:25:55 PM,,,30998.51,B70C10B5274FB3FC,Point,30998.5099,,,30098.99,Singapore Management University,,,school
103.850622,1.287615989,Singapore River communities,Singapore River communities were people living by or around the Singapore River.,clampToGround,29925.7199,,,,"<a target=""_blank"" href=""http://infopedia.nl.sg/articles/SIP_498_2004-12-27.html"">http://infopedia.nl.sg/articles/SIP_498_2004-12-27.html</a>",,4/17/2013 12:25:55 PM,,,30003.56,6E34739659888145,Point,30003.56,,,29925.72,Singapore River communities,,,river
103.850496,1.286653927,Singapore River Historical Overview,"The mouth of the Singapore River saw the beginnings of an ancient fishing village, Temasek.",clampToGround,29911.7,,,,"<a target=""_blank"" href=""http://infopedia.nl.sg/articles/SIP_148_2005-02-02.html"">http://infopedia.nl.sg/articles/SIP_148_2005-02-02.html</a>",,4/17/2013 12:25:55 PM,,,29897.18,E184D1E1C45E5EA8,Point,29897.1799,,,29911.7,Singapore River Historical Overview,,,river
103.8853439,1.298338926,Fort Road,Fort Road connects Mountbatten Road to Tanjong Rhu Flyover.,clampToGround,33789.96,,,,"<a target=""_blank"" href=""http://infopedia.nl.sg/articles/SIP_328_2004-12-17.html"">http://infopedia.nl.sg/articles/SIP_328_2004-12-17.html</a>",,4/17/2013 12:25:55 PM,,,31189.3,E6CC33E21A37F171,Point,31189.3,,,33789.96,Fort Road,,,district
103.862728,1.293335985,Benjamin Sheares Bridge,"Benjamin Sheares Bridge, longest bridge in Singapore, is located in the Central Region.",clampToGround,31273.0099,,,,"<a target=""_blank"" href=""http://infopedia.nl.sg/articles/SIP_32_2004-12-20.html"">http://infopedia.nl.sg/articles/SIP_32_2004-12-20.html</a>",,4/17/2013 12:25:55 PM,,,30636.06,49E2E88B07EE6834,Point,30636.06,,,31273.01,Benjamin Sheares Bridge,,,bridge
103.8794469,1.34385398,Sri Ramakrishna Mission,"A branch of the Ramakrishna Order of India, a worldwide spiritual and welfare organisation, the Sri Ramakrishna Mission in Singapore is located off Bartley Road.",clampToGround,33133.58,,,,"<a target=""_blank"" href=""http://infopedia.nl.sg/articles/SIP_410_2005-01-18.html"">http://infopedia.nl.sg/articles/SIP_410_2005-01-18.html</a>",,4/17/2013 12:25:55 PM,,,36222.11,706046AD20E2985C,Point,36222.1099,,,33133.58,Sri Ramakrishna Mission,,,building
103.755063,1.359881916,Bukit Batok Town Park,"Constructed from a disused granite quarry, Bukit Batok Town Park is commonly known as Little Guilin or Xiao Guilin after the scenic spot in China.",clampToGround,19291.0599,,,,"<a target=""_blank"" href=""http://infopedia.nl.sg/articles/SIP_546_2005-01-24.html"">http://infopedia.nl.sg/articles/SIP_546_2005-01-24.html</a>",,4/17/2013 12:25:55 PM,,,37994.49,1621D7ABFE3F242E,Point,37994.49,,,19291.06,Bukit Batok Town Park,,,park
103.8579579,1.319342941,McNair Road,"Is a short stretch of road that lies adjacent to Towner Road, and is accessible via Balestier Road and Serangoon Road.",clampToGround,30742.12,,,,"<a target=""_blank"" href=""http://infopedia.nl.sg/articles/SIP_639_2005-01-26.html"">http://infopedia.nl.sg/articles/SIP_639_2005-01-26.html</a>",,4/17/2013 12:25:55 PM,,,33511.77,CAA7BD8DDC95FA34,Point,33511.7699,,,30742.12,McNair Road,,,district
103.844136,1.299115928,Istana Park,"A tropical oasis in the heart of Orchard Road, the Istana Park was officially opened on 6 September 1996.",clampToGround,29203.8799,,,,"<a target=""_blank"" href=""http://infopedia.nl.sg/articles/SIP_446_2004-12-24.html"">http://infopedia.nl.sg/articles/SIP_446_2004-12-24.html</a>",,4/17/2013 12:25:55 PM,,,31275.16,6675BD3E9827B9C2,Point,31275.16,,,29203.88,Istana Park,,,park
103.823669,1.260101991,Sentosa Causeway,The Sentosa Causeway links Sentosa Island with mainland Singapore.,clampToGround,26926.07,,,,"<a target=""_blank"" href=""http://infopedia.nl.sg/articles/SIP_473_2005-01-22.html"">http://infopedia.nl.sg/articles/SIP_473_2005-01-22.html</a>",,4/17/2013 12:25:55 PM,,,26961.2,0DC49205F576726F,Point,26961.1999,,,26926.07,Sentosa Causeway,,,shopping
103.8193159,1.359564996,Singapore Island Country Club,Formed in 1963 after the merger of the Royal Singapore Golf Club and the Royal Island Club.,clampToGround,26441.6699,,,,"<a target=""_blank"" href=""http://infopedia.nl.sg/articles/SIP_540_2005-01-05.html"">http://infopedia.nl.sg/articles/SIP_540_2005-01-05.html</a>",,4/17/2013 12:25:55 PM,,,37959.31,A61B9F990FE52989,Point,37959.31,,,26441.67,Singapore Island Country Club,,,club
103.8516839,1.288546935,Victoria Theatre and Concert Hall,"The Victoria Theatre and Concert Hall, along Empress Place, are two separate buildings built more than 40 years apart and joined by a Clock Tower.",clampToGround,30043.91,,,,"<a target=""_blank"" href=""http://infopedia.nl.sg/articles/SIP_770_2004-12-16.html"">http://infopedia.nl.sg/articles/SIP_770_2004-12-16.html</a>",,4/17/2013 12:25:55 PM,,,30106.5,03089CBE31C5CCDA,Point,30106.5,,,30043.91,Victoria Theatre and Concert Hall,,,theatre
103.8506969,1.29017299,Supreme Court Building,The former Supreme Court building was the seat of Singapore's highest court from 1939 to 2005.,clampToGround,29934.0599,,,,"<a target=""_blank"" href=""http://infopedia.nl.sg/articles/SIP_774_2005-01-10.html"">http://infopedia.nl.sg/articles/SIP_774_2005-01-10.html</a>",,4/17/2013 12:25:55 PM,,,30286.3,9870A4AEEC2A47E7,Point,30286.3,,,29934.06,Supreme Court Building,,,building
103.911155,1.305056959,Tao Nan School,"One of Singapore's oldest primary schools, Tao Nan School was established on 18 November 1906.",clampToGround,36662.48,,,,"<a target=""_blank"" href=""http://infopedia.nl.sg/articles/SIP_608_2005-01-04.html"">http://infopedia.nl.sg/articles/SIP_608_2005-01-04.html</a>",,4/17/2013 12:25:55 PM,,,31932.22,08C1506CEEFFF7CA,Point,31932.22,,,36662.48,Tao Nan School,,,school
103.8684789,1.307131993,Kallang,"The Biduanda Orang Kallang, constituted at least 50% of the 1000 residents found in Singapore at the time of Raffles' landing.",clampToGround,31913.0199,,,,"<a target=""_blank"" href=""http://infopedia.nl.sg/articles/SIP_220_2005-01-03.html"">http://infopedia.nl.sg/articles/SIP_220_2005-01-03.html</a>",,4/17/2013 12:25:55 PM,,,32161.56,A5931B2A32C9B313,Point,32161.56,,,31913.02,Kallang,,,district
103.792366,1.461796949,Senoko Fishing Port,The Senoko Fishing Port replaced the 13 year-old Punggol Fishing Port and its wholesale market which relocated to Senoko port on 2 September 1997.,clampToGround,23442.65,,,,"<a target=""_blank"" href=""http://infopedia.nl.sg/articles/SIP_396_2005-01-18.html"">http://infopedia.nl.sg/articles/SIP_396_2005-01-18.html</a>",,4/17/2013 12:25:55 PM,,,49263.64,5F297F79C4E892A9,Point,49263.64,,,23442.65,Senoko Fishing Port,,,fishing port
103.909515,1.307829971,Karikal Lane,Karikal lane is a short stretch of road that connects St. Patrick's Road and East Coast Road.,clampToGround,36479.95,,,,"<a target=""_blank"" href=""http://infopedia.nl.sg/articles/SIP_614_2005-01-24.html"">http://infopedia.nl.sg/articles/SIP_614_2005-01-24.html</a>",,4/17/2013 12:25:55 PM,,,32238.84,09E64974B38DB84C,Point,32238.8399,,,36479.95,Karikal Lane,,,shopping
103.848975,1.277354985,Shenton Way,Shenton Way was named after Sir Shenton Whitelegge Thomas who was the Governor of Singapore (1934-1946).,clampToGround,29742.4299,,,,"<a target=""_blank"" href=""http://infopedia.nl.sg/articles/SIP_726_2005-01-25.html"">http://infopedia.nl.sg/articles/SIP_726_2005-01-25.html</a>",,4/17/2013 12:25:55 PM,,,28868.95,7E18A22F4C11C120,Point,28868.9499,,,29742.43,Shenton Way,,,district
103.8968249,1.31766393,Sims Avenue,"Sim Kia Jan, was a Managing Partner of Chin Huat Hin Oil Trading Co.",clampToGround,35067.6399,,,,"<a target=""_blank"" href=""http://infopedia.nl.sg/articles/SIP_231_2004-12-24.html"">http://infopedia.nl.sg/articles/SIP_231_2004-12-24.html</a>",,4/17/2013 12:25:55 PM,,,33326.19,789D58DC48B8FB65,Point,33326.1899,,,35067.64,Sims Avenue,,,district
103.8182151,1.308322158,Singapore Botanic Gardens,Sir Stamford Raffles established the first Botanic Gardens in Singapore in 1822 along the slopes of Fort Canning Hill.,clampToGround,26319.12,,,,"<a target=""_blank"" href=""http://infopedia.nl.sg/articles/SIP_545_2005-01-24.html"">http://infopedia.nl.sg/articles/SIP_545_2005-01-24.html</a>",,4/17/2013 12:25:55 PM,,,32293.14,CE38B6886BA96654,Point,32293.14,,,26319.12,Singapore Botanic Gardens,,,gardens
103.852009,1.288926947,Singapore Cricket Club,Located at the heart of the city's civic centre along Connaught Drive and overlooking the Padang.,clampToGround,30080.08,,,,"<a target=""_blank"" href=""http://infopedia.nl.sg/articles/SIP_144_2004-12-30.html"">http://infopedia.nl.sg/articles/SIP_144_2004-12-30.html</a>",,4/17/2013 12:25:55 PM,,,30148.52,76109BCEBF0F1289,Point,30148.5199,,,30080.08,Singapore Cricket Club,,,club
103.949659,1.372405973,Pasir Ris Public Library,"Pasir Ris Public Library officially opened on 6 October 2000, is located on the fourth floor of White Sands Shopping Mall",clampToGround,40947.2699,,,,"<a target=""_blank"" href=""http://infopedia.nl.sg/articles/SIP_700_2005-01-24.html"">http://infopedia.nl.sg/articles/SIP_700_2005-01-24.html</a>",,4/17/2013 12:25:55 PM,,,39379.51,F1E1B033190E5E4F,Point,39379.5099,,,40947.27,Pasir Ris Public Library,,,library
103.8013259,1.273692969,Port of Singapore Authority (PSA),"The Port of Singapore Authority (PSA) was formed on 1 April 1964 to take over the functions, assets and liabilities of the Singapore Harbour Board.",clampToGround,24439.4699,,,,"<a target=""_blank"" href=""http://infopedia.nl.sg/articles/SIP_577_2005-01-27.html"">http://infopedia.nl.sg/articles/SIP_577_2005-01-27.html</a>",,4/17/2013 12:25:55 PM,,,28464.04,950236D1204A1FD2,Point,28464.0399,,,24439.47,Port of Singapore Authority (PSA),,,building
103.899453,1.30545395,Haig Road,Named after Douglas 1st Earl Bemersyde who won the war of attrition for the British.,clampToGround,35360.15,,,,"<a target=""_blank"" href=""http://infopedia.nl.sg/articles/SIP_615_2005-01-24.html"">http://infopedia.nl.sg/articles/SIP_615_2005-01-24.html</a>",,4/17/2013 12:25:55 PM,,,31976.08,6BD34AED255AE673,Point,31976.08,,,35360.15,Haig Road,,,district
103.8302599,1.288881976,Havelock Road,Havelock Road is a street located in the Central Region.,clampToGround,27659.5999,,,,"<a target=""_blank"" href=""http://infopedia.nl.sg/articles/SIP_229_2004-12-15.html"">http://infopedia.nl.sg/articles/SIP_229_2004-12-15.html</a>",,4/17/2013 12:25:55 PM,,,30143.54,19CE147041406F92,Point,30143.5399,,,27659.6,Havelock Road,,,district
103.8495419,1.292428935,High Street,"High Street, located in the Downtown Core of the Central region, stretches from Hill Street to the current St. Andrew's Road.",clampToGround,29805.5199,,,,"<a target=""_blank"" href=""http://infopedia.nl.sg/articles/SIP_497_2004-12-15.html"">http://infopedia.nl.sg/articles/SIP_497_2004-12-15.html</a>",,4/17/2013 12:25:55 PM,,,30535.75,65ED334444AF89AC,Point,30535.75,,,29805.52,High Street,,,shopping
103.805403,1.298594973,Queenstown Public Library,"The Queenstown Public Library located at 53 Margaret Drive, Singapore 149297, was opened on 2 May 1970.",clampToGround,24893.24,,,,"<a target=""_blank"" href=""http://infopedia.nl.sg/articles/SIP_934_2004-12-13.html"">http://infopedia.nl.sg/articles/SIP_934_2004-12-13.html</a>",,4/17/2013 12:25:55 PM,,,31217.57,E7D207F02E1B1DD1,Point,31217.57,,,24893.24,Queenstown Public Library,,,library
103.8458579,1.346398996,Raffles Institution,"Originally known as the Singapore Institution, Raffles Institution was founded by Sir Stamford Raffles in 1823, making it the oldest school in Singapore.",clampToGround,29395.49,,,,"<a target=""_blank"" href=""http://infopedia.nl.sg/articles/SIP_17_2004-12-21.html"">http://infopedia.nl.sg/articles/SIP_17_2004-12-21.html</a>",,4/17/2013 12:25:55 PM,,,36503.48,91480FF7C827FB2C,Point,36503.48,,,29395.49,Raffles Institution,,,school
103.8475029,1.284683967,Hokien Street,"Hokien Street, a.k.a. Hokkien Street, is a one-way street connecting China Street to South Bridge Road.",clampToGround,29578.5999,,,,"<a target=""_blank"" href=""http://infopedia.nl.sg/articles/SIP_295_2004-12-15.html"">http://infopedia.nl.sg/articles/SIP_295_2004-12-15.html</a>",,4/17/2013 12:25:55 PM,,,29679.35,E41DDA84FAB38E7C,Point,29679.3499,,,29578.6,Hokien Street,,,shopping
103.794362,1.312365946,Holland Village,"Was originally plantation estates in the heavily wooded area of Chip Bee Estate, and farms at Lorong Mambong.",clampToGround,23664.5,,,,"<a target=""_blank"" href=""http://infopedia.nl.sg/articles/SIP_735_2004-12-15.html"">http://infopedia.nl.sg/articles/SIP_735_2004-12-15.html</a>",,4/17/2013 12:25:55 PM,,,32740.31,D9EE27D85EE4D772,Point,32740.31,,,23664.5,Holland Village,,,shopping
103.8487229,1.295565911,National Library Building,"The National Library Building, located at 91 Stamford Road, was officially opened on 12 November 1960.",clampToGround,29714.37,,,,"<a target=""_blank"" href=""http://infopedia.nl.sg/articles/SIP_661_2004-12-27.html"">http://infopedia.nl.sg/articles/SIP_661_2004-12-27.html</a>",,4/17/2013 12:25:55 PM,,,30882.62,EED1883745946447,Point,30882.6199,,,29714.37,National Library Building,,,library
103.844514,1.293140969,National Theatre,"A public theatre for performances, concerts and conferences, was at the corner of Clemenceau Avenue and River Valley Road.",clampToGround,29245.95,,,,"<a target=""_blank"" href=""http://infopedia.nl.sg/articles/SIP_800_2005-01-18.html"">http://infopedia.nl.sg/articles/SIP_800_2005-01-18.html</a>",,4/17/2013 12:25:55 PM,,,30614.48,36D47DF0354B4ACB,Point,30614.48,,,29245.95,National Theatre,,,theatre
103.8216679,1.400459996,Nee Soon Road,Nee Soon Road runs between Sembawang Road and Springleaf Road.,clampToGround,26703.44,,,,"<a target=""_blank"" href=""http://infopedia.nl.sg/articles/SIP_360_2005-01-22.html"">http://infopedia.nl.sg/articles/SIP_360_2005-01-22.html</a>",,4/17/2013 12:25:55 PM,,,42481.27,FF3F73B4FD7DBE33,Point,42481.2699,,,26703.44,Nee Soon Road,,,district
103.841552,1.27865197,Neil Road,"Originally known as Silat, Selat or Salat Road, it was renamed as Neil Road in 1858 after Brigadier-General James George Smith Neil (1810-1857), a hero of the 1857 Indian mutiny.",clampToGround,28916.3099,,,,"<a target=""_blank"" href=""http://infopedia.nl.sg/articles/SIP_309_2004-12-16.html"">http://infopedia.nl.sg/articles/SIP_309_2004-12-16.html</a>",,4/17/2013 12:25:55 PM,,,29012.36,3BA597FDC08CF063,Point,29012.3599,,,28916.31,Neil Road,,,district
103.847644,1.280666958,Telok Ayer Street,Telok Ayer Street extends from Market Street to Anson Road.,clampToGround,29594.2999,,,,"<a target=""_blank"" href=""http://infopedia.nl.sg/articles/SIP_656_2004-12-31.html"">http://infopedia.nl.sg/articles/SIP_656_2004-12-31.html</a>",,4/17/2013 12:25:55 PM,,,29235.17,A9E86E36D30D7685,Point,29235.1699,,,29594.3,Telok Ayer Street,,,shopping
103.9108929,1.312351928,Telok Kurau Road,Telok Kurau Road connects Changi Road to Marine Parade Road.,clampToGround,36633.29,,,,"<a target=""_blank"" href=""http://infopedia.nl.sg/articles/SIP_378_2005-01-19.html"">http://infopedia.nl.sg/articles/SIP_378_2005-01-19.html</a>",,4/17/2013 12:25:55 PM,,,32738.86,53E558B16A239973,Point,32738.8599,,,36633.29,Telok Kurau Road,,,district
103.844632,1.282628993,Temple Street,Temple Street is a one-way street connecting South Bridge Road to New Bridge Road.,clampToGround,29259.0899,,,,"<a target=""_blank"" href=""http://infopedia.nl.sg/articles/SIP_320_2005-01-11.html"">http://infopedia.nl.sg/articles/SIP_320_2005-01-11.html</a>",,4/17/2013 12:25:55 PM,,,29452.12,176FE20938BA45A0,Point,29452.1199,,,29259.09,Temple Street,,,shopping
103.850362,1.28413093,Market Street,Market Street is made up of two one-way roads.,clampToGround,29896.79,,,,"<a target=""_blank"" href=""http://infopedia.nl.sg/articles/SIP_351_2005-01-11.html"">http://infopedia.nl.sg/articles/SIP_351_2005-01-11.html</a>",,4/17/2013 12:25:55 PM,,,29618.2,79D550A0059F2BCE,Point,29618.1999,,,29896.79,Market Street,,,shopping
103.907962,1.310262937,Still Road,Still Road connects Changi Road to East Coast Road.,clampToGround,36307.11,,,,"<a target=""_blank"" href=""http://infopedia.nl.sg/articles/SIP_617_2005-01-17.html"">http://infopedia.nl.sg/articles/SIP_617_2005-01-17.html</a>",,4/17/2013 12:25:55 PM,,,32507.86,B3E880AE5849D62F,Point,32507.8599,,,36307.11,Still Road,,,district
103.903606,1.305780946,Tay Buan Guan Supermarket,"Tay Buan Guan Supermarket, one of Singapore's earliest supermarket, was established in 1948 by Tay Leck Teck.",clampToGround,35822.3399,,,,"<a target=""_blank"" href=""http://infopedia.nl.sg/articles/SIP_613_2005-01-28.html"">http://infopedia.nl.sg/articles/SIP_613_2005-01-28.html</a>",,4/17/2013 12:25:55 PM,,,32012.25,4BDF50734FD1B2B6,Point,32012.25,,,35822.34,Tay Buan Guan Supermarket,,,market
103.899366,1.315827914,Joo Chiat,"Joo Chiat estate, due to re-zoning, is today located in two areas, Marine Parade and Geylang.",clampToGround,35350.44,,,,"<a target=""_blank"" href=""http://infopedia.nl.sg/articles/SIP_946_2004-12-16.html"">http://infopedia.nl.sg/articles/SIP_946_2004-12-16.html</a>",,4/17/2013 12:25:55 PM,,,33123.18,F5AA375786D8176F,Point,33123.1799,,,35350.44,Joo Chiat,,,district
103.8416569,1.280527984,Keong Saik Road,"Keong Saik Road, in Chinatown, connects New Bridge Road to Neil Road.",clampToGround,28927.99,,,,"<a target=""_blank"" href=""http://infopedia.nl.sg/articles/SIP_303_2004-12-27.html"">http://infopedia.nl.sg/articles/SIP_303_2004-12-27.html</a>",,4/17/2013 12:25:55 PM,,,29219.8,E544F14DC0334CEC,Point,29219.8,,,28927.99,Keong Saik Road,,,district
103.705979,1.319453914,Jurong,Jurong was a mangrove swamp before it was developed into an industrial estate in 1961.,clampToGround,13828.3399,,,,"<a target=""_blank"" href=""http://infopedia.nl.sg/articles/SIP_246_2004-12-16.html"">http://infopedia.nl.sg/articles/SIP_246_2004-12-16.html</a>",,4/17/2013 12:25:55 PM,,,33524.39,2EEDAA2489E73B3D,Point,33524.39,,,13828.34,Jurong,,,district
103.8438389,1.280125986,Jinrickshaw Station,"The Jinrickshaw Station (a.k.a Jinricksha Station), built in 1903, served as the registration centre for rickshaws.",clampToGround,29170.83,,,,"<a target=""_blank"" href=""http://infopedia.nl.sg/articles/SIP_485_2005-01-03.html"">http://infopedia.nl.sg/articles/SIP_485_2005-01-03.html</a>",,4/17/2013 12:25:55 PM,,,29175.35,388D424C465E8126,Point,29175.3499,,,29170.83,Jinrickshaw Station,,,station
103.832013,1.294987978,Times House,"Times House, a building that once stood at the junction of Kim Seng Road and River Valley Road, was officially opened on 3 April 1958.",clampToGround,27854.7,,,,"<a target=""_blank"" href=""http://infopedia.nl.sg/articles/SIP_581_2005-01-19.html"">http://infopedia.nl.sg/articles/SIP_581_2005-01-19.html</a>",,4/17/2013 12:25:55 PM,,,30818.71,7499C16775347F51,Point,30818.71,,,27854.7,Times House,,,house
103.85047,1.333479941,Toa Payoh Public Library,"The Toa Payoh Public Library, was opened on 7 February 1974.",clampToGround,29908.7699,,,,"<a target=""_blank"" href=""http://infopedia.nl.sg/articles/SIP_959_2005-01-03.html"">http://infopedia.nl.sg/articles/SIP_959_2005-01-03.html</a>",,4/17/2013 12:25:55 PM,,,35074.96,C4589753AA1878A3,Point,35074.96,,,29908.77,Toa Payoh Public Library,,,library
103.659473,1.318857911,Tuas,"In the fishing method used in the past, coastal Malays floated coconut fronds and leafy branches, kept close together by the rising tide.",clampToGround,8652.66,,,,"<a target=""_blank"" href=""http://infopedia.nl.sg/articles/SIP_881_2005-01-27.html"">http://infopedia.nl.sg/articles/SIP_881_2005-01-27.html</a>",,4/17/2013 12:25:55 PM,,,33458.8,F642E94FCE739DE9,Point,33458.8,,,8652.66,Tuas,,,district
103.848243,1.290740947,The MICA Building (MITA Building),"The MICA Building, is a colonial landmark located at the junction of River Valley Road and Hill Street.",clampToGround,29660.96,,,,"<a target=""_blank"" href=""http://infopedia.nl.sg/articles/SIP_727_2005-01-13.html"">http://infopedia.nl.sg/articles/SIP_727_2005-01-13.html</a>",,4/17/2013 12:25:55 PM,,,30349.1,8955BE09C518260A,Point,30349.0999,,,29660.96,The MICA Building (MITA Building),,,historic building
103.848288,1.284820974,Pickering Street,"Pickering Street, a street in the Downtown Core, is located in the Central Region.",clampToGround,29665.9699,,,,"<a target=""_blank"" href=""http://infopedia.nl.sg/articles/SIP_920_2005-01-19.html"">http://infopedia.nl.sg/articles/SIP_920_2005-01-19.html</a>",,4/17/2013 12:25:55 PM,,,29694.5,D879DE1F77A1CE40,Point,29694.5,,,29665.97,Pickering Street,,,shopping
103.857056,1.288960999,The Esplanade,"The Esplanade, long open stretch of ground/field, originally by the sea, located in the Downtown Core of the Central Region.",clampToGround,30641.7699,,,,"<a target=""_blank"" href=""http://infopedia.nl.sg/articles/SIP_149_2004-12-13.html"">http://infopedia.nl.sg/articles/SIP_149_2004-12-13.html</a>",,4/17/2013 12:25:55 PM,,,30152.29,DAED5EE9880F8939,Point,30152.2899,,,30641.77,The Esplanade,,,theatre
103.968851,1.402539913,Pulau Ubin,"Pulau Ubin, (Pulo Obin) island, located in the north-eastern coast of Singapore, with Selat Johore to the north and Serangoon Harbour to the south.",clampToGround,43082.9199,,,,"<a target=""_blank"" href=""http://infopedia.nl.sg/articles/SIP_219_2004-12-13.html"">http://infopedia.nl.sg/articles/SIP_219_2004-12-13.html</a>",,4/17/2013 12:25:55 PM,,,42711.69,1C3502554BFDEB30,Point,42711.6899,,,43082.92,Pulau Ubin,,,island
103.854926,1.297498945,North Bridge Road,"With the help of Convict labourers, High Street (first street in Singapore), North Bridge Road and Hill Street, were the first three streets carved out of jungle.",clampToGround,30404.71,,,,"<a target=""_blank"" href=""http://infopedia.nl.sg/articles/SIP_880_2004-12-28.html"">http://infopedia.nl.sg/articles/SIP_880_2004-12-28.html</a>",,4/17/2013 12:25:55 PM,,,31096.37,8E03C98A36501114,Point,31096.3699,,,30404.71,North Bridge Road,,,district
103.8223419,1.304259954,Omni Marco Polo Hotel,"Omni Marco Polo Hotel a.k.a Marco Polo Hotel, built in 1968 on Tanglin Road, was one of Singapore's famous landmark.",clampToGround,26778.4,,,,"<a target=""_blank"" href=""http://infopedia.nl.sg/articles/SIP_913_2005-01-22.html"">http://infopedia.nl.sg/articles/SIP_913_2005-01-22.html</a>",,4/17/2013 12:25:55 PM,,,31843.96,B8F3779D913639D5,Point,31843.96,,,26778.4,Omni Marco Polo Hotel,,,hotel
103.852448,1.285673943,Flint Street,Tanjong Tangkap was a popular reference given by merchants to the godowns of Alexander Laurie Johnston &amp; Co.,clampToGround,30128.94,,,,"<a target=""_blank"" href=""http://infopedia.nl.sg/articles/SIP_175_2005-01-18.html"">http://infopedia.nl.sg/articles/SIP_175_2005-01-18.html</a>",,4/17/2013 12:25:55 PM,,,29788.82,7F1C53AA3B11E0CF,Point,29788.82,,,30128.94,Flint Street,,,shopping
103.890304,1.329891996,Paya Lebar,Paya Lebar (c. 1820s - 1830s Pyah Laebar District) estate is located within the East Region of Singapore.,clampToGround,34341.8899,,,,"<a target=""_blank"" href=""http://infopedia.nl.sg/articles/SIP_216_2005-01-24.html"">http://infopedia.nl.sg/articles/SIP_216_2005-01-24.html</a>",,4/17/2013 12:25:55 PM,,,34678.29,A09DAE78C42AE42C,Point,34678.2899,,,34341.89,Paya Lebar,,,district
103.8461049,1.295497917,Fort Canning Bunkers,The Battle Box or Fort Canning Bunker was built in 1936 to serve the Headquarters of the British Strategic Command.,clampToGround,29423.0099,,,,"<a target=""_blank"" href=""http://infopedia.nl.sg/articles/SIP_858_2004-12-15.html"">http://infopedia.nl.sg/articles/SIP_858_2004-12-15.html</a>",,4/17/2013 12:25:55 PM,,,30875.1,7556C23B984DA6D4,Point,30875.0999,,,29423.01,Fort Canning Bunkers,,,garden
103.8454949,1.296001923,Fort Canning Park,"Fort Canning Hill, also known as Bukit Larangan (meaning Forbidden Hill) and later Government Hill is 156 ft high.",clampToGround,29355.12,,,,"<a target=""_blank"" href=""http://infopedia.nl.sg/articles/SIP_8_2004-12-10.html"">http://infopedia.nl.sg/articles/SIP_8_2004-12-10.html</a>",,4/17/2013 12:25:55 PM,,,30930.83,F3044331155380FF,Point,30930.83,,,29355.12,Fort Canning Park,,,garden
103.8451259,1.282645993,Sri Mariamman Temple,Sri Mariamman Temple at 244 South Bridge Road is the oldest Hindu temple in Singapore.,clampToGround,29314.0599,,,,"<a target=""_blank"" href=""http://infopedia.nl.sg/articles/SIP_778_2004-12-23.html"">http://infopedia.nl.sg/articles/SIP_778_2004-12-23.html</a>",,4/17/2013 12:25:55 PM,,,29454,82CC6814F1ACAA77,Point,29454,,,29314.06,Sri Mariamman Temple,,,temple
103.8487249,1.282994968,Fuk Tak Chi Temple,"Fuk Tak Chi Temple, located on Telok Ayer Street, is one of the oldest Chinese temple in Singapore.",clampToGround,29714.5999,,,,"<a target=""_blank"" href=""http://infopedia.nl.sg/articles/SIP_232_2004-12-10.html"">http://infopedia.nl.sg/articles/SIP_232_2004-12-10.html</a>",,4/17/2013 12:25:55 PM,,,29492.59,C89571353342DE83,Point,29492.5899,,,29714.6,Fuk Tak Chi Temple,,,temple
103.836479,1.272740961,Tanjong Pagar Railway Station,The Tanjong Pagar Railway Station is the port of call for trains heading to and from Singapore.,clampToGround,28351.73,,,,"<a target=""_blank"" href=""http://infopedia.nl.sg/articles/SIP_954_2005-01-10.html"">http://infopedia.nl.sg/articles/SIP_954_2005-01-10.html</a>",,4/17/2013 12:25:55 PM,,,28358.75,955F086F466AC0D6,Point,28358.75,,,28351.73,Tanjong Pagar Railway Station,,,railway
103.8736879,1.299255985,Tanjong Rhu suspension footbridge,Singapore's first suspension footbridge was built in 1998.,clampToGround,32492.75,,,,"<a target=""_blank"" href=""http://infopedia.nl.sg/articles/SIP_376_2004-12-10.html"">http://infopedia.nl.sg/articles/SIP_376_2004-12-10.html</a>",,4/17/2013 12:25:55 PM,,,31290.68,BF560F14D4EB0F2B,Point,31290.6799,,,32492.75,Tanjong Rhu suspension footbridge,,,bridge
103.843231,1.298615999,House of Tan Yeok Nee,The House of Tan Yeok Nee was built in 1882 as the residence of Tan Yeok Nee (b. 1827 - d. 1902).,clampToGround,29103.16,,,,"<a target=""_blank"" href=""http://infopedia.nl.sg/articles/SIP_854_2004-12-17.html"">http://infopedia.nl.sg/articles/SIP_854_2004-12-17.html</a>",,4/17/2013 12:25:55 PM,,,31219.88,BD0E4745DDBDAF85,Point,31219.88,,,29103.16,House of Tan Yeok Nee,,,house
103.843146,1.307058968,Istana,The Istana is the official residence of the President of the Republic of Singapore.,clampToGround,29093.7,,,,"<a target=""_blank"" href=""http://infopedia.nl.sg/articles/SIP_807_2005-02-01.html"">http://infopedia.nl.sg/articles/SIP_807_2005-02-01.html</a>",,4/17/2013 12:25:55 PM,,,32153.46,9DE2E512E02B3ED6,Point,32153.46,,,29093.7,Istana,,,historic building
103.859896,1.302772971,Kampong Glam,Kampong Glam was land set aside for Sultan Hussein Mohammed Shah and 600 family members in 1823.,clampToGround,30957.82,,,,"<a target=""_blank"" href=""http://infopedia.nl.sg/articles/SIP_249_2004-12-16.html"">http://infopedia.nl.sg/articles/SIP_249_2004-12-16.html</a>",,4/17/2013 12:25:55 PM,,,31679.55,7FDE4BC0E4F55CE2,Point,31679.55,,,30957.82,Kampong Glam,,,kampong
103.739575,1.332691951,Jurong Regional Library,Jurong Regional Library is the largest public library in Singapore.,clampToGround,17567.3099,,,,"<a target=""_blank"" href=""http://infopedia.nl.sg/articles/SIP_435_2005-01-17.html"">http://infopedia.nl.sg/articles/SIP_435_2005-01-17.html</a>",,4/17/2013 12:25:55 PM,,,34988.02,6AB30E177B5C03F7,Point,34988.0199,,,17567.31,Jurong Regional Library,,,library
103.7077,1.272017921,Jurong Island,Jurong Island was officially declared opened by Prime Minister Goh Chok Tong on 14 October 2000.,clampToGround,14019.61,,,,"<a target=""_blank"" href=""http://infopedia.nl.sg/articles/SIP_505_2004-12-17.html"">http://infopedia.nl.sg/articles/SIP_505_2004-12-17.html</a>",,4/17/2013 12:25:55 PM,,,28279.14,137EF8099AEEF3BD,Point,28279.14,,,14019.61,Jurong Island,,,island
103.7419719,1.331061926,Jurong Town Corporation,The Jurong Town Corporation (JTC) is Singapore's principal developer and manager of industrial estates.,clampToGround,17834.0599,,,,"<a target=""_blank"" href=""http://infopedia.nl.sg/articles/SIP_553_2004-12-31.html"">http://infopedia.nl.sg/articles/SIP_553_2004-12-31.html</a>",,4/17/2013 12:25:55 PM,,,34807.77,59338680399FEF4B,Point,34807.7699,,,17834.06,Jurong Town Corporation,,,building
103.8629799,1.302805946,Hajjah Fatimah Mosque,"Hajjah Fatimah Mosque is located at 4001 Beach Road, in the historic Kampong Glam area.",clampToGround,31301.04,,,,"<a target=""_blank"" href=""http://infopedia.nl.sg/articles/SIP_259_2005-01-06.html"">http://infopedia.nl.sg/articles/SIP_259_2005-01-06.html</a>",,4/17/2013 12:25:55 PM,,,31683.2,6229D6B5F74ED697,Point,31683.1999,,,31301.04,Hajjah Fatimah Mosque,,,mosque
103.7045497,1.340518789,Jurong West Public Library,"Jurong West Public Library is located at 60 Jurong West Central 3, #01-03.",clampToGround,13669.4,,,,"<a target=""_blank"" href=""http://infopedia.nl.sg/articles/SIP_251_2005-01-24.html"">http://infopedia.nl.sg/articles/SIP_251_2005-01-24.html</a>",,4/17/2013 12:25:55 PM,,,35853.65,D6A7B049C34FAD3A,Point,35853.65,,,13669.4,Jurong West Public Library,,,library
103.920262,1.324924986,Kampong Chai Chee,Chai Chee began as a village of attap huts set with coconut and banana trees in an area off old Upper Changi Road.,clampToGround,37675.9299,,,,"<a target=""_blank"" href=""http://infopedia.nl.sg/articles/SIP_723_2005-01-25.html"">http://infopedia.nl.sg/articles/SIP_723_2005-01-25.html</a>",,4/17/2013 12:25:55 PM,,,34129.16,0FCA4DE8C57F8C1F,Point,34129.16,,,37675.93,Kampong Chai Chee,,,kampong
103.8161429,1.283012953,Bukit Merah,The hilly plains of Bukit Merah suited the growing of gambier and its surrounding forests provided ready fuel for the boiling of gambier.,clampToGround,26088.49,,,,"<a target=""_blank"" href=""http://infopedia.nl.sg/articles/SIP_779_2005-01-26.html"">http://infopedia.nl.sg/articles/SIP_779_2005-01-26.html</a>",,4/17/2013 12:25:55 PM,,,29494.58,D190E56822107FED,Point,29494.58,,,26088.49,Bukit Merah,,,district
103.8521309,1.28400494,Change Alley,"Change Alley, alley way, is located in the Downtown Core of the Central Region.",clampToGround,30093.66,,,,"<a target=""_blank"" href=""http://infopedia.nl.sg/articles/SIP_223_2004-12-17.html"">http://infopedia.nl.sg/articles/SIP_223_2004-12-17.html</a>",,4/17/2013 12:25:55 PM,,,29604.27,3A02F1E5C929F0A2,Point,29604.2699,,,30093.66,Change Alley,,,district
103.8498769,1.294673929,MPH,"Rev. Dr. W. G. Shellabear, a former army officer and later missionary, began the Methodist Mission Press in December 1890, to publish materials for the Methodist mission.",clampToGround,29842.7999,,,,"<a target=""_blank"" href=""http://infopedia.nl.sg/articles/SIP_61_2004-12-27.html"">http://infopedia.nl.sg/articles/SIP_61_2004-12-27.html</a>",,4/17/2013 12:25:55 PM,,,30783.99,B0A152738C96C639,Point,30783.99,,,29842.8,MPH,,,building
103.847142,1.283689982,Chin Chew Street,"Chin Chew Street, in Chinatown, connects South Bridge Road and China Street.",clampToGround,29538.4299,,,,"<a target=""_blank"" href=""http://infopedia.nl.sg/articles/SIP_307_2004-12-17.html"">http://infopedia.nl.sg/articles/SIP_307_2004-12-17.html</a>",,4/17/2013 12:25:55 PM,,,29569.44,1E14A388DC7485D9,Point,29569.4399,,,29538.43,Chin Chew Street,,,shopping
103.815517,1.28418591,Bukit Merah Public Library,"Bukit Merah Public Library, located at Bukit Merah Central, Singapore, was the fourth full-time Branch Library.",clampToGround,26018.83,,,,"<a target=""_blank"" href=""http://infopedia.nl.sg/articles/SIP_960_2005-01-06.html"">http://infopedia.nl.sg/articles/SIP_960_2005-01-06.html</a>",,4/17/2013 12:25:55 PM,,,29624.28,D2656D14D56C78B8,Point,29624.2799,,,26018.83,Bukit Merah Public Library,,,library
103.8490389,1.292113948,Central Fire Station,"The Central Fire Station, also known as the Hill Street Fire Station, is Singapore?s oldest surviving fire station.",clampToGround,29749.54,,,,"<a target=""_blank"" href=""http://infopedia.nl.sg/articles/SIP_857_2004-12-15.html"">http://infopedia.nl.sg/articles/SIP_857_2004-12-15.html</a>",,4/17/2013 12:25:55 PM,,,30500.92,B0B743180BB1083F,Point,30500.9199,,,29749.54,Central Fire Station,,,fire station
103.856414,1.297998955,Liang Seah Street,"Liang Seah Street, in the Civic District links North Bridge Road with Beach Road.",clampToGround,30570.3099,,,,"<a target=""_blank"" href=""http://infopedia.nl.sg/articles/SIP_794_2005-01-26.html"">http://infopedia.nl.sg/articles/SIP_794_2005-01-26.html</a>",,4/17/2013 12:25:55 PM,,,31151.66,2D2A1B17E8E4174D,Point,31151.66,,,30570.31,Liang Seah Street,,,shopping
103.806966,1.29020149,Alexandra Road,"Originally a plantations area in the 1950s, it became the location for reputable business names like Singapore Cold Storage, Anchor Brewery, Diethelm, Singapore Steam Laundry, to name a few.",clampToGround,25067.1799,,,,"<a target=""_blank"" href=""http://infopedia.nl.sg/articles/SIP_741_2005-01-20.html"">http://infopedia.nl.sg/articles/SIP_741_2005-01-20.html</a>",,4/17/2013 3:53:48 PM,,,30289.46,61D060BFFEB47F1E,Point,30289.46,,,25067.18,Alexandra Road,,,district
103.9343069,1.323402949,Chai Chee Branch Library (Part-time),Chai Chee Branch Library (Part-time) (November 1974 - January 1981) was the fifth branch library of the National Library.,clampToGround,39239,,,,"<a target=""_blank"" href=""http://infopedia.nl.sg/articles/SIP_915_2005-01-22.html"">http://infopedia.nl.sg/articles/SIP_915_2005-01-22.html</a>",,4/17/2013 12:25:55 PM,,,33960.92,E3016A3BA0014C7C,Point,33960.9199,,,39239,Chai Chee Branch Library (Part-time),,,library
103.7573018,1.419023371,Kranji Memorials,"Is made up of 3 cemeteries, namely the Kranji War Memorial, the Military and the Singapore State Cemetery.",clampToGround,19540.4299,,,,"<a target=""_blank"" href=""http://infopedia.nl.sg/articles/SIP_183_2004-12-27.html"">http://infopedia.nl.sg/articles/SIP_183_2004-12-27.html</a>",,4/17/2013 3:53:48 PM,,,44534.05,80C208BE2E7559AF,Point,44534.05,,,19540.43,Kranji Memorials,,,historic landmark
103.852657,1.300528947,Sri Krishnan Temple,"Sri Krishnan Temple (a.k.a Sri Krishna Temple), on Waterloo Street was established in 1870.",clampToGround,30152.19,,,,"<a target=""_blank"" href=""http://infopedia.nl.sg/articles/SIP_276_2004-12-24.html"">http://infopedia.nl.sg/articles/SIP_276_2004-12-24.html</a>",,4/17/2013 12:25:55 PM,,,31431.41,AF2443A50D3FE066,Point,31431.41,,,30152.19,Sri Krishnan Temple,,,temple
103.7642639,1.31417393,Clementi New Town,Straddles Upper Ayer Rajah Road and includes the National University of Singapore at Kent Ridge as one of its key landmarks.,clampToGround,20314.8799,,,,"<a target=""_blank"" href=""http://infopedia.nl.sg/articles/SIP_215_2005-01-23.html"">http://infopedia.nl.sg/articles/SIP_215_2005-01-23.html</a>",,4/17/2013 12:25:55 PM,,,32940.3,F5548BD69CC5C19E,Point,32940.3,,,20314.88,Clementi New Town,,,district
103.9037929,1.305185959,East Coast Road,"East Coast Road, beginning at the junction of Tanjong Katong Road and Mountbatten Road, is a thoroughfare along the east.Â¿",clampToGround,35843.15,,,,"<a target=""_blank"" href=""http://infopedia.nl.sg/articles/SIP_293_2004-12-13.html"">http://infopedia.nl.sg/articles/SIP_293_2004-12-13.html</a>",,4/17/2013 12:25:55 PM,,,31946.46,47636F2C40FDF358,Point,31946.46,,,35843.15,East Coast Road,,,district
103.853864,1.299987947,Queen Street,Is a one-way street that connects Arab Street to the junction of Stamford Road and Armenian Street.,clampToGround,30286.5199,,,,"<a target=""_blank"" href=""http://infopedia.nl.sg/articles/SIP_287_2004-12-14.html"">http://infopedia.nl.sg/articles/SIP_287_2004-12-14.html</a>",,4/17/2013 12:25:55 PM,,,31371.59,7A70839CF51E7BF0,Point,31371.5899,,,30286.52,Queen Street,,,shopping
103.854802,1.300588979,Bugis Street,"The original street was a well-known world tourist attraction frequented by tourists, especially in the 1950s and 1960s, when it was notorious for the transvestites found there.",clampToGround,30390.91,,,,"<a target=""_blank"" href=""http://infopedia.nl.sg/articles/SIP_184_2005-01-25.html"">http://infopedia.nl.sg/articles/SIP_184_2005-01-25.html</a>",,4/17/2013 12:25:55 PM,,,31438.05,B32259BA0101F623,Point,31438.05,,,30390.91,Bugis Street,,,shopping
103.8463423,1.298783383,Dhoby Ghaut,"In Hindi dhoby is the term for laundry, and ghaut (in Anglo-Indian) which means place or steps along a river.",clampToGround,29449.4199,,,,"<a target=""_blank"" href=""http://infopedia.nl.sg/articles/SIP_235_2004-12-14.html"">http://infopedia.nl.sg/articles/SIP_235_2004-12-14.html</a>",,4/22/2013 3:41:48 PM,,,31238.39,E69FAAB77B574F80,Point,31238.39,,,29449.42,Dhoby Ghaut,,,district
103.864907,1.301874879,Nicoll Highway,"Nicoll Highway, two stretches of highway road linked by Merdeka Bridge, located in the Central Region of Singapore.",clampToGround,31515.5099,,,,"<a target=""_blank"" href=""http://infopedia.nl.sg/articles/SIP_939_2004-12-17.html"">http://infopedia.nl.sg/articles/SIP_939_2004-12-17.html</a>",,4/22/2013 3:41:48 PM,,,31580.25,CBA43EDDCF7BFA62,Point,31580.25,,,31515.51,Nicoll Highway,,,highway
103.860468,1.318835928,Central Sikh Temple,"Established in 1912, it was previously known as the Queen Street Gurdwara Sahib due to its former location.",clampToGround,31021.46,,,,"<a target=""_blank"" href=""http://infopedia.nl.sg/articles/SIP_1721_2010-11-09.html"">http://infopedia.nl.sg/articles/SIP_1721_2010-11-09.html</a>",,4/17/2013 12:25:55 PM,,,33455.71,356CA4AF4DEA3FAE,Point,33455.71,,,31021.46,Central Sikh Temple,,,temple
103.8516829,1.284538971,Raffles Place,Soon after the founding of Singapore traders from all over the world began to arrive.,clampToGround,30043.7999,,,,"<a target=""_blank"" href=""http://infopedia.nl.sg/articles/SIP_864_2004-12-30.html"">http://infopedia.nl.sg/articles/SIP_864_2004-12-30.html</a>",,4/17/2013 12:25:55 PM,,,29663.32,D072C7415AD67AC3,Point,29663.32,,,30043.8,Raffles Place,,,building
103.8522179,1.299651988,Waterloo Street,Waterloo Street begins as an offshoot from Stamford Road and ends around Bencoolen Link.,clampToGround,30103.33,,,,"<a target=""_blank"" href=""http://infopedia.nl.sg/articles/SIP_270_2005-01-25.html"">http://infopedia.nl.sg/articles/SIP_270_2005-01-25.html</a>",,4/17/2013 12:25:55 PM,,,31334.44,8D07682BBD2BC0AD,Point,31334.4399,,,30103.33,Waterloo Street,,,food
103.783679,1.332921956,Methodist Girls' School (MGS),"The Methodist Girls School (MGS), located at Blackmore Drive, was founded by Sophia Blackmore on 15 August 1887.",clampToGround,22475.6299,,,,"<a target=""_blank"" href=""http://infopedia.nl.sg/articles/SIP_591_2005-01-05.html"">http://infopedia.nl.sg/articles/SIP_591_2005-01-05.html</a>",,4/17/2013 12:25:55 PM,,,35013.31,6EADE4FE50ADBA66,Point,35013.31,,,22475.63,Methodist Girls' School (MGS),,,school
103.852362,1.286462911,Cavenagh Bridge,"Cavenagh Bridge, a Singapore River crossing, located in Central Region.",clampToGround,30119.37,,,,"<a target=""_blank"" href=""http://infopedia.nl.sg/articles/SIP_2_2004-12-17.html"">http://infopedia.nl.sg/articles/SIP_2_2004-12-17.html</a>",,4/17/2013 12:25:55 PM,,,29876.06,D7474BBD38E9911C,Point,29876.06,,,30119.37,Cavenagh Bridge,,,bridge
103.904323,1.311617962,Koon Seng Road,"A two-way road, begins at the junction of Pennefather Road and Joo Chiat Road.",clampToGround,35902.12,,,,"<a target=""_blank"" href=""http://infopedia.nl.sg/articles/SIP_375_2004-12-27.html"">http://infopedia.nl.sg/articles/SIP_375_2004-12-27.html</a>",,4/17/2013 12:25:55 PM,,,32657.68,98E9399D75B187B8,Point,32657.6799,,,35902.12,Koon Seng Road,,,district
103.8452349,1.285565915,Chinatown,"Chinatown, estate, a great part located in the Outram area in the Central Region.",clampToGround,29326.19,,,,"<a target=""_blank"" href=""http://infopedia.nl.sg/articles/SIP_734_2005-01-24.html"">http://infopedia.nl.sg/articles/SIP_734_2005-01-24.html</a>",,4/17/2013 12:25:55 PM,,,29776.87,C0444D39B34A3560,Point,29776.8699,,,29326.19,Chinatown,,,food
103.850492,1.320304434,Communicable Diseases Centre (CDC),The Communicable Diseases Centre (CDC) is one of Singapore's oldest hospitals.,clampToGround,29911.23,,,,"<a target=""_blank"" href=""http://infopedia.nl.sg/articles/SIP_336_2005-01-03.html"">http://infopedia.nl.sg/articles/SIP_336_2005-01-03.html</a>",,4/22/2013 3:41:48 PM,,,33618.08,38167245D57293C5,Point,33618.08,,,29911.23,Communicable Diseases Centre (CDC),,,healthcare
103.7405879,1.16013898,Raffles Lighthouse Memorial Tablet,"Raffles Lighthouse Memorial Tablet was laid with the Raffles Lighthouse Foundation Stone on 24 May 1854, by William J. Butterworth, Colonel, C.B., Governor of the Straits Settlements.",clampToGround,17679.37,,,,"<a target=""_blank"" href=""http://infopedia.nl.sg/articles/SIP_936_2005-01-06.html"">http://infopedia.nl.sg/articles/SIP_936_2005-01-06.html</a>",,4/17/2013 12:25:55 PM,,,15907.98,0610E15E1DEFB963,Point,15907.98,,,17679.37,Raffles Lighthouse Memorial Tablet,,,lighthouse
103.8472641,1.328150812,Sun Yat Sen Nanyang Memorial Hall,The former Sun Yat Sen Villa is named after the prominent Chinese nationalist Dr Sun Yat Sen.,clampToGround,29551.99,,,,"<a target=""_blank"" href=""http://infopedia.nl.sg/articles/SIP_537_2005-01-05.html"">http://infopedia.nl.sg/articles/SIP_537_2005-01-05.html</a>",,4/17/2013 12:25:55 PM,,,34485.69,69FE7770166AB1AB,Point,34485.6899,,,29551.99,Sun Yat Sen Nanyang Memorial Hall,,,historic building
103.8508899,1.294063928,Stamford House,Stamford House is an ornate building of Victorian design located at Stamford Road.,clampToGround,29955.54,,,,"<a target=""_blank"" href=""http://infopedia.nl.sg/articles/SIP_925_2005-01-27.html"">http://infopedia.nl.sg/articles/SIP_925_2005-01-27.html</a>",,4/17/2013 12:25:55 PM,,,30716.54,DC327AFEDE4C393C,Point,30716.5399,,,29955.54,Stamford House,,,house
103.8477299,1.350445926,Bishan,"Bishan, estate, located in the Central Region, lies between Ang Mo Kio Town, Toa Payoh Town and the Central Water Catchment area.",clampToGround,29603.82,,,,"<a target=""_blank"" href=""http://infopedia.nl.sg/articles/SIP_731_2005-01-20.html"">http://infopedia.nl.sg/articles/SIP_731_2005-01-20.html</a>",,4/17/2013 12:25:55 PM,,,36950.97,6B7EB7537E024F09,Point,36950.97,,,29603.82,Bishan,,,district
103.8457908,1.273615635,Palmer Road,Palmer Road begins at the junction of Enggor Street and Anson Road and ends near Keppel Road.,clampToGround,29388.0599,,,,"<a target=""_blank"" href=""http://infopedia.nl.sg/articles/SIP_288_2005-01-26.html"">http://infopedia.nl.sg/articles/SIP_288_2005-01-26.html</a>",,4/17/2013 3:53:48 PM,,,28455.47,17FD6665D685B864,Point,28455.47,,,29388.06,Palmer Road,,,district
103.8544209,1.34321892,Braddell Road,"For a long time Braddell Road had been known as an exclusive residential area, amidst Kampong San Teng and Kampong Woodleigh, but today it runs between Toa Payoh New Town and Bishan New Town.",clampToGround,30348.46,,,,"<a target=""_blank"" href=""http://infopedia.nl.sg/articles/SIP_226_2005-01-20.html"">http://infopedia.nl.sg/articles/SIP_226_2005-01-20.html</a>",,4/17/2013 12:25:55 PM,,,36151.85,F1BC92D5AED545D9,Point,36151.8499,,,30348.46,Braddell Road,,,district
103.8466742,1.273432496,Fook Tet Soo Khek Temple,"Fook Tet Soo Khek Temple, better known as Wang Hai Da Bo Gong Miao, is located at the foot of Mount Palmer.",clampToGround,29486.3799,,,,"<a target=""_blank"" href=""http://infopedia.nl.sg/articles/SIP_1257_2007-03-12.html"">http://infopedia.nl.sg/articles/SIP_1257_2007-03-12.html</a>",,4/22/2013 3:41:48 PM,,,28435.22,C917D1975449809A,Point,28435.22,,,29486.38,Fook Tet Soo Khek Temple,,,temple
103.8511259,1.301703457,Prinsep Street Presbyterian,The Prinsep Street Presbyterian Church at 77 Prinsep Street was gazetted as a national monument by the Preservation of Monuments Board on 12 January 2000.,clampToGround,29981.79,,,,"<a target=""_blank"" href=""http://infopedia.nl.sg/articles/SIP_491_2004-12-13.html"">http://infopedia.nl.sg/articles/SIP_491_2004-12-13.html</a>",,4/22/2013 3:41:48 PM,,,31561.28,69D46861666ED48A,Point,31561.2799,,,29981.79,Prinsep Street Presbyterian,,,shopping
103.721247,1.334136985,Jurong Branch Library (Part-time),Jurong Branch Library (Part-time) (15 November 1977 - 1 June 1988) was the 6th part-time Branch Library of the National Library Board.,clampToGround,15527.5999,,,,"<a target=""_blank"" href=""http://infopedia.nl.sg/articles/SIP_895_2005-01-24.html"">http://infopedia.nl.sg/articles/SIP_895_2005-01-24.html</a>",,4/17/2013 12:25:55 PM,,,35147.89,7014148E61DCF4CF,Point,35147.89,,,15527.6,Jurong Branch Library (Part-time),,,library
103.749255,1.350192912,Bukit Batok Public Library,"Bukit Batok Public Library is located at 1 Bukit Batok Central Link, #03-01 West Mall Singapore 658713.",clampToGround,18644.66,,,,"<a target=""_blank"" href=""http://infopedia.nl.sg/articles/SIP_703_2005-01-24.html"">http://infopedia.nl.sg/articles/SIP_703_2005-01-24.html</a>",,4/17/2013 12:25:55 PM,,,36923.15,6868D5C2DA23BFBB,Point,36923.15,,,18644.66,Bukit Batok Public Library,,,library
103.8408919,1.29318195,Hong San See Temple,Hong San See at 31 Mohamed Sultan Road was built between 1908 and 1913.,clampToGround,28842.8499,,,,"<a target=""_blank"" href=""http://infopedia.nl.sg/articles/SIP_331_2005-01-26.html"">http://infopedia.nl.sg/articles/SIP_331_2005-01-26.html</a>",,4/17/2013 12:25:55 PM,,,30619.01,378D7286C8D7378C,Point,30619.0099,,,28842.85,Hong San See Temple,,,temple
103.902421,1.305508946,Sri Senpaga Vinayagar Temple,"Sri Senpaga Vinayagar Temple, situated on Ceylon Road, was established in the mid-19th century by the Ceylonese Tamils from Sri Lanka.",clampToGround,35690.46,,,,"<a target=""_blank"" href=""http://infopedia.nl.sg/articles/SIP_626_2004-12-23.html"">http://infopedia.nl.sg/articles/SIP_626_2004-12-23.html</a>",,4/17/2013 12:25:55 PM,,,31982.17,AB64E6C6A42240D4,Point,31982.1699,,,35690.46,Sri Senpaga Vinayagar Temple,,,temple
103.8430509,1.283997937,Eu Tong Sen Street,"Jalan Bukit Merah and Kampong Bahru Road meet to form a single major road that later branches into two parallel roads, Eu Tong Sen Street and New Bridge Road.",clampToGround,29083.1299,,,,"<a target=""_blank"" href=""http://infopedia.nl.sg/articles/SIP_277_2005-01-26.html"">http://infopedia.nl.sg/articles/SIP_277_2005-01-26.html</a>",,4/17/2013 12:25:55 PM,,,29603.49,E36267C43580D2B5,Point,29603.49,,,29083.13,Eu Tong Sen Street,,,shopping
103.8469499,1.328476928,Burmese Buddhist temple: Sasanaramsi,Sasanaramsi Burmese Buddhist Temple is the first and only Burmese Theravada Buddhist temple built outside Myanmar in the traditional style.,clampToGround,29517.03,,,,"<a target=""_blank"" href=""http://infopedia.nl.sg/articles/SIP_665_2005-01-04.html"">http://infopedia.nl.sg/articles/SIP_665_2005-01-04.html</a>",,4/17/2013 12:25:55 PM,,,34521.75,88F477E499091F3B,Point,34521.75,,,29517.03,Burmese Buddhist temple: Sasanaramsi,,,temple
103.926084,1.252789922,Singapore Strait,"Singapore Strait, sea channel, an ancient trade route known for more than a thousand years.",clampToGround,38324.15,,,,"<a target=""_blank"" href=""http://infopedia.nl.sg/articles/SIP_969_2005-01-19.html"">http://infopedia.nl.sg/articles/SIP_969_2005-01-19.html</a>",,4/17/2013 12:25:55 PM,,,26152.85,FDAC196A3E6185F9,Point,26152.8499,,,38324.15,Singapore Strait,,,bridge
103.9307922,1.326835692,Bedok Branch Library (Part-time),Bedok Branch Library (14 January 1981 - 15 August 1985) was the seventh part-time branch of the National Library.,clampToGround,38847.83,,,,"<a target=""_blank"" href=""http://infopedia.nl.sg/articles/SIP_896_2005-01-24.html"">http://infopedia.nl.sg/articles/SIP_896_2005-01-24.html</a>",,4/17/2013 12:25:55 PM,,,34340.48,61A3E218B2EA3FBA,Point,34340.48,,,38847.83,Bedok Branch Library (Part-time),,,library
103.85892,1.316279939,Serangoon Road,"Serangoon Road is a major thoroughfare, cutting through Singapore's Little India.",clampToGround,30849.19,,,,"<a target=""_blank"" href=""http://infopedia.nl.sg/articles/SIP_24_2005-01-10.html"">http://infopedia.nl.sg/articles/SIP_24_2005-01-10.html</a>",,4/17/2013 12:25:55 PM,,,33173.08,AB37086FE7499313,Point,33173.08,,,30849.19,Serangoon Road,,,district
103.9567389,1.370195988,Pasir Ris,"Pasir Ris was originally a low-lying, undeveloped area with kampongs and villages like Kampong Pasir Ris, Kampong Bahru and the various Chinese kampongs along Elias Road.",clampToGround,41735.2,,,,"<a target=""_blank"" href=""http://infopedia.nl.sg/articles/SIP_801_2005-01-24.html"">http://infopedia.nl.sg/articles/SIP_801_2005-01-24.html</a>",,4/17/2013 12:25:55 PM,,,39135.18,7777EAC1C6DBC86E,Point,39135.1799,,,41735.2,Pasir Ris,,,district
103.8496269,1.292610984,Hill Street,Hill Street begins at the junction of Victoria Street and Stamford Road and extends to the edge of Chinatown area.,clampToGround,29814.98,,,,"<a target=""_blank"" href=""http://infopedia.nl.sg/articles/SIP_269_2005-01-19.html"">http://infopedia.nl.sg/articles/SIP_269_2005-01-19.html</a>",,4/17/2013 12:25:55 PM,,,30555.88,74893D650E0FBF9A,Point,30555.88,,,29814.98,Hill Street,,,shopping
103.843402,1.284068928,New Bridge Road,"New Bridge Road, a one-way road, begins from the junction of Hill Street, River Valley Road and the Promenade, and ends at the junction of Eu Tong Sen Street and Kampong Bahru Road.",clampToGround,29122.2,,,,"<a target=""_blank"" href=""http://infopedia.nl.sg/articles/SIP_310_2004-12-17.html"">http://infopedia.nl.sg/articles/SIP_310_2004-12-17.html</a>",,4/17/2013 12:25:55 PM,,,29611.34,8D13639F5931C8FA,Point,29611.3399,,,29122.2,New Bridge Road,,,district
103.85342,1.284128918,Johnston's Pier,"Johnston's Pier, a jetty, landing-platform for the convenient arrival and departure of sea travellers.",clampToGround,30237.12,,,,"<a target=""_blank"" href=""http://infopedia.nl.sg/articles/SIP_517_2005-01-19.html"">http://infopedia.nl.sg/articles/SIP_517_2005-01-19.html</a>",,4/17/2013 12:25:55 PM,,,29617.98,9F8FFEB3ADFBEA2E,Point,29617.98,,,30237.12,Johnston's Pier,,,pier
103.8439789,1.282619952,Trengganu Street,"Trengganu Street, in Chinatown, connects Sago Street and Pagoda Street.",clampToGround,29186.41,,,,"<a target=""_blank"" href=""http://infopedia.nl.sg/articles/SIP_330_2005-01-22.html"">http://infopedia.nl.sg/articles/SIP_330_2005-01-22.html</a>",,4/17/2013 12:25:55 PM,,,29451.12,5DA15C28BAD232E2,Point,29451.1199,,,29186.41,Trengganu Street,,,shopping
103.84544,1.287391918,Old Thong Chai Building,The former Thong Chai Medical Institution is also known simply as the old Thong Chai Building.,clampToGround,29349.0099,,,,"<a target=""_blank"" href=""http://infopedia.nl.sg/articles/SIP_824_2005-01-25.html"">http://infopedia.nl.sg/articles/SIP_824_2005-01-25.html</a>",,4/17/2013 12:25:55 PM,,,29978.78,70385354F1EE7B35,Point,29978.7799,,,29349.01,Old Thong Chai Building,,,historic building
103.8090319,1.25840395,Fort Siloso,"Fort Siloso, located on the northwestern tip of Sentosa Island, was built in the early 1880s to aid in protecting the port.",clampToGround,25297.07,,,,"<a target=""_blank"" href=""http://infopedia.nl.sg/articles/SIP_875_2004-12-10.html"">http://infopedia.nl.sg/articles/SIP_875_2004-12-10.html</a>",,4/17/2013 12:25:55 PM,,,26773.45,46845C7AD00BB44B,Point,26773.4499,,,25297.07,Fort Siloso,,,museum
103.724506,1.338246919,Jurong Drive-in cinema,"Singapore's only open-air drive-in cinema, was opened by the then Minister of Culture, Jek Yuen Thong, on 14 July 1971.",clampToGround,15890.3099,,,,"<a target=""_blank"" href=""http://infopedia.nl.sg/articles/SIP_478_2005-01-22.html"">http://infopedia.nl.sg/articles/SIP_478_2005-01-22.html</a>",,4/17/2013 12:25:55 PM,,,35602.33,C75AD0B945AAA9AD,Point,35602.33,,,15890.31,Jurong Drive-in cinema,,,theatre
103.846775,1.31230698,Kampong Java Road,Kampong Java Road (a.k.a. Kg. Java Road) connects Bukit Timah Road to Newton Circus.,clampToGround,29497.57,,,,"<a target=""_blank"" href=""http://infopedia.nl.sg/articles/SIP_298_2005-01-11.html"">http://infopedia.nl.sg/articles/SIP_298_2005-01-11.html</a>",,4/17/2013 12:25:55 PM,,,32733.76,8FF3906705ED52FD,Point,32733.7599,,,29497.57,Kampong Java Road,,,district
103.764543,1.379650962,Bukit Panjang Public Library,"Bukit Panjang Public Library is located on the fourth floor of Bukit Panjang Plaza, No. 1 Jelebu Road, Singapore 677743.",clampToGround,20346.1399,,,,"<a target=""_blank"" href=""http://infopedia.nl.sg/articles/SIP_949_2005-01-22.html"">http://infopedia.nl.sg/articles/SIP_949_2005-01-22.html</a>",,4/17/2013 12:25:55 PM,,,40180.42,60F80744C2DBEC4A,Point,40180.4199,,,20346.14,Bukit Panjang Public Library,,,library
